{"type":"FeatureCollection","name":"Decoupage-administMar","crs":{"type":"name","properties":{"name":"urn:ogc:def:crs:OGC:1.3:CRS84"}},"features":[{"type":"Feature","properties":{"nom_region":"Oriental","Indice":2,"Population":2302182},"geometry":{"type":"Polygon","coordinates":[[[-2.971990747421472,35.439863042233654],[-2.953,35.432],[-2.962,35.414],[-2.962,35.394],[-2.967,35.374],[-2.963,35.354],[-2.961,35.334],[-2.95,35.317],[-2.938,35.3],[-2.936,35.279],[-2.917,35.274],[-2.911,35.253],[-2.894,35.237],[-2.878,35.223],[-2.862,35.21],[-2.879,35.22],[-2.894,35.234],[-2.91,35.246],[-2.93,35.246],[-2.925,35.226],[-2.906,35.218],[-2.918,35.201],[-2.923,35.182],[-2.911,35.165],[-2.901,35.147],[-2.884,35.134],[-2.866,35.124],[-2.844,35.115],[-2.822,35.106],[-2.8,35.102],[-2.779,35.101],[-2.758,35.098],[-2.746,35.114],[-2.763,35.125],[-2.778,35.138],[-2.809,35.16],[-2.863,35.2],[-2.785,35.151],[-2.769,35.138],[-2.751,35.128],[-2.732,35.12],[-2.714,35.112],[-2.695,35.104],[-2.676,35.098],[-2.656,35.093],[-2.633,35.088],[-2.612,35.086],[-2.59,35.085],[-2.57,35.082],[-2.55,35.084],[-2.531,35.088],[-2.511,35.093],[-2.492,35.1],[-2.473,35.11],[-2.456,35.122],[-2.441,35.135],[-2.425,35.148],[-2.405,35.137],[-2.376,35.129],[-2.35,35.124],[-2.318,35.117],[-2.296,35.113],[-2.275,35.102],[-2.256,35.096],[-2.236,35.09],[-2.216,35.086],[-2.213,35.066],[-2.214,35.046],[-2.195,35.037],[-2.183,35.021],[-2.167,35.008],[-2.148,35.001],[-2.128,34.996],[-2.117,34.98],[-2.102,34.966],[-2.087,34.953],[-2.069,34.943],[-2.052,34.932],[-2.033,34.925],[-2.013,34.932],[-1.992,34.93],[-1.973,34.936],[-1.974,34.916],[-1.974,34.896],[-1.965,34.877],[-1.947,34.866],[-1.929,34.858],[-1.91,34.849],[-1.893,34.838],[-1.89,34.817],[-1.873,34.805],[-1.853,34.798],[-1.835,34.787],[-1.815,34.783],[-1.798,34.771],[-1.778,34.762],[-1.76,34.754],[-1.741,34.744],[-1.761,34.732],[-1.772,34.716],[-1.779,34.695],[-1.795,34.682],[-1.81,34.667],[-1.824,34.65],[-1.837,34.63],[-1.853,34.617],[-1.833,34.612],[-1.816,34.602],[-1.803,34.587],[-1.79,34.57],[-1.78,34.55],[-1.764,34.529],[-1.74,34.509],[-1.702,34.495],[-1.712,34.466],[-1.749,34.428],[-1.765,34.41],[-1.78,34.394],[-1.774,34.375],[-1.756,34.363],[-1.738,34.344],[-1.725,34.328],[-1.706,34.306],[-1.712,34.286],[-1.712,34.265],[-1.716,34.243],[-1.707,34.218],[-1.686,34.179],[-1.649,34.109],[-1.654,34.084],[-1.661,34.056],[-1.665,34.032],[-1.67,34.009],[-1.676,33.979],[-1.686,33.937],[-1.695,33.896],[-1.696,33.875],[-1.673,33.803],[-1.665,33.778],[-1.693,33.76],[-1.699,33.736],[-1.71,33.718],[-1.72,33.699],[-1.722,33.679],[-1.709,33.655],[-1.689,33.631],[-1.667,33.608],[-1.647,33.578],[-1.633,33.553],[-1.626,33.521],[-1.625,33.5],[-1.624,33.475],[-1.622,33.444],[-1.641,33.423],[-1.652,33.401],[-1.662,33.383],[-1.664,33.355],[-1.659,33.335],[-1.663,33.311],[-1.666,33.289],[-1.664,33.263],[-1.644,33.245],[-1.63,33.221],[-1.61,33.211],[-1.601,33.192],[-1.584,33.17],[-1.576,33.146],[-1.556,33.126],[-1.54,33.114],[-1.507,33.088],[-1.499,33.069],[-1.507,33.047],[-1.5,33.027],[-1.497,33.003],[-1.493,32.981],[-1.506,32.959],[-1.527,32.942],[-1.548,32.925],[-1.55,32.895],[-1.537,32.867],[-1.517,32.835],[-1.498,32.813],[-1.472,32.778],[-1.444,32.745],[-1.429,32.729],[-1.408,32.706],[-1.389,32.691],[-1.356,32.666],[-1.328,32.65],[-1.282,32.628],[-1.249,32.616],[-1.219,32.597],[-1.156,32.56],[-1.14,32.54],[-1.122,32.524],[-1.106,32.512],[-1.072,32.495],[-1.05,32.487],[-1.021,32.472],[-1.022,32.452],[-1.053,32.436],[-1.07,32.415],[-1.09,32.404],[-1.128,32.387],[-1.152,32.367],[-1.187,32.331],[-1.205,32.304],[-1.205,32.275],[-1.205,32.242],[-1.204,32.221],[-1.192,32.201],[-1.169,32.172],[-1.155,32.147],[-1.147,32.128],[-1.138,32.109],[-1.155,32.085],[-1.175,32.063],[-1.198,32.049],[-1.22,32.039],[-1.263,32.032],[-1.306,32.036],[-1.326,32.041],[-1.356,32.048],[-1.4,32.059],[-1.42,32.064],[-1.443,32.069],[-1.463,32.076],[-1.494,32.087],[-1.53,32.09],[-1.56,32.095],[-1.587,32.096],[-1.615,32.096],[-1.638,32.098],[-1.677,32.098],[-1.712,32.097],[-1.736,32.101],[-1.759,32.104],[-1.789,32.108],[-1.825,32.111],[-1.849,32.116],[-1.88,32.122],[-1.907,32.128],[-1.936,32.134],[-1.976,32.14],[-2.003,32.141],[-2.028,32.141],[-2.06,32.136],[-2.1,32.13],[-2.143,32.126],[-2.177,32.124],[-2.216,32.121],[-2.246,32.116],[-2.268,32.111],[-2.29,32.109],[-2.32,32.11],[-2.345,32.112],[-2.373,32.118],[-2.395,32.122],[-2.42,32.127],[-2.497,32.122],[-2.525,32.109],[-2.547,32.105],[-2.579,32.095],[-2.628,32.074],[-2.683,32.076],[-2.717,32.075],[-2.752,32.075],[-2.778,32.059],[-2.804,32.045],[-2.83,32.024],[-2.846,32.011],[-2.871,31.989],[-2.858,31.97],[-2.831,31.95],[-2.843,31.925],[-2.854,31.897],[-2.852,31.869],[-2.843,31.846],[-2.84,31.809],[-2.851,31.788],[-2.871,31.773],[-2.891,31.76],[-2.913,31.75],[-2.939,31.741],[-2.962,31.739],[-2.986,31.736],[-3.024,31.728],[-3.047,31.721],[-3.072,31.713],[-3.112,31.704],[-3.144,31.698],[-3.168,31.698],[-3.196,31.697],[-3.224,31.69],[-3.252,31.681],[-3.263,31.698],[-3.28,31.722],[-3.255,31.737],[-3.23,31.747],[-3.191,31.768],[-3.155,31.784],[-3.139,31.801],[-3.121,31.814],[-3.141,31.823],[-3.161,31.821],[-3.179,31.813],[-3.204,31.827],[-3.218,31.85],[-3.23,31.87],[-3.239,31.892],[-3.247,31.916],[-3.259,31.946],[-3.271,31.974],[-3.271,32.011],[-3.272,32.031],[-3.268,32.093],[-3.268,32.114],[-3.244,32.127],[-3.221,32.144],[-3.191,32.167],[-3.173,32.184],[-3.194,32.18],[-3.229,32.172],[-3.253,32.163],[-3.29,32.14],[-3.313,32.127],[-3.344,32.125],[-3.366,32.129],[-3.389,32.133],[-3.41,32.137],[-3.425,32.151],[-3.435,32.17],[-3.457,32.177],[-3.48,32.183],[-3.504,32.186],[-3.527,32.186],[-3.547,32.188],[-3.539,32.166],[-3.552,32.141],[-3.571,32.133],[-3.611,32.124],[-3.646,32.113],[-3.667,32.113],[-3.688,32.11],[-3.695,32.131],[-3.68,32.157],[-3.671,32.175],[-3.683,32.195],[-3.726,32.199],[-3.749,32.203],[-3.749,32.23],[-3.742,32.251],[-3.736,32.272],[-3.756,32.27],[-3.776,32.266],[-3.795,32.26],[-3.797,32.28],[-3.779,32.289],[-3.792,32.305],[-3.805,32.321],[-3.817,32.337],[-3.824,32.356],[-3.829,32.375],[-3.832,32.396],[-3.845,32.411],[-3.86,32.423],[-3.875,32.437],[-3.889,32.452],[-3.909,32.457],[-3.918,32.474],[-3.906,32.49],[-3.926,32.509],[-3.959,32.508],[-3.96,32.53],[-3.944,32.554],[-3.955,32.574],[-3.968,32.592],[-3.99,32.607],[-4.009,32.601],[-4.014,32.623],[-4.016,32.643],[-4.014,32.664],[-3.995,32.672],[-3.975,32.681],[-3.958,32.7],[-3.924,32.73],[-3.896,32.751],[-3.86,32.776],[-3.842,32.79],[-3.826,32.826],[-3.815,32.845],[-3.799,32.867],[-3.78,32.889],[-3.763,32.903],[-3.741,32.904],[-3.721,32.903],[-3.686,32.898],[-3.66,32.901],[-3.669,32.925],[-3.681,32.956],[-3.694,32.989],[-3.683,33.006],[-3.7,33.024],[-3.723,33.025],[-3.75,33.023],[-3.77,33.022],[-3.789,33.029],[-3.761,33.052],[-3.742,33.063],[-3.614,33.134],[-3.595,33.124],[-3.577,33.112],[-3.56,33.097],[-3.547,33.082],[-3.525,33.093],[-3.506,33.101],[-3.486,33.096],[-3.466,33.096],[-3.446,33.089],[-3.425,33.091],[-3.406,33.084],[-3.386,33.081],[-3.368,33.089],[-3.347,33.087],[-3.324,33.09],[-3.302,33.093],[-3.281,33.102],[-3.259,33.106],[-3.237,33.107],[-3.216,33.111],[-3.194,33.113],[-3.175,33.122],[-3.156,33.136],[-3.136,33.144],[-3.115,33.139],[-3.092,33.135],[-3.067,33.136],[-3.044,33.14],[-3.021,33.144],[-2.999,33.152],[-2.984,33.171],[-2.962,33.179],[-2.937,33.18],[-2.913,33.184],[-2.948,33.207],[-2.962,33.224],[-2.976,33.25],[-2.997,33.273],[-3.012,33.287],[-3.038,33.312],[-3.055,33.328],[-3.098,33.389],[-3.17,33.492],[-3.209,33.5],[-3.237,33.505],[-3.253,33.519],[-3.269,33.533],[-3.255,33.548],[-3.242,33.563],[-3.223,33.57],[-3.202,33.573],[-3.184,33.582],[-3.17,33.597],[-3.155,33.613],[-3.14,33.631],[-3.127,33.648],[-3.116,33.667],[-3.107,33.687],[-3.102,33.713],[-3.097,33.738],[-3.115,33.748],[-3.136,33.752],[-3.157,33.757],[-3.18,33.761],[-3.2,33.764],[-3.22,33.769],[-3.242,33.774],[-3.264,33.778],[-3.285,33.779],[-3.306,33.789],[-3.322,33.802],[-3.34,33.811],[-3.354,33.825],[-3.374,33.831],[-3.391,33.844],[-3.41,33.852],[-3.424,33.868],[-3.439,33.882],[-3.459,33.885],[-3.481,33.885],[-3.501,33.885],[-3.519,33.896],[-3.54,33.898],[-3.554,33.881],[-3.573,33.861],[-3.593,33.847],[-3.61,33.833],[-3.626,33.813],[-3.641,33.79],[-3.659,33.773],[-3.68,33.759],[-3.721,33.736],[-3.739,33.724],[-3.758,33.709],[-3.776,33.695],[-3.787,33.678],[-3.794,33.659],[-3.808,33.64],[-3.826,33.623],[-3.836,33.592],[-3.876,33.576],[-3.893,33.566],[-3.912,33.557],[-3.93,33.547],[-3.942,33.531],[-3.961,33.522],[-3.983,33.519],[-3.996,33.534],[-4.016,33.537],[-4.04,33.539],[-4.06,33.545],[-4.08,33.551],[-4.097,33.562],[-4.096,33.593],[-4.088,33.622],[-4.101,33.64],[-4.117,33.658],[-4.09,33.661],[-4.067,33.696],[-4.049,33.71],[-4.018,33.721],[-3.994,33.721],[-3.966,33.727],[-3.956,33.745],[-3.962,33.764],[-3.964,33.785],[-3.951,33.801],[-3.94,33.821],[-3.925,33.835],[-3.916,33.854],[-3.91,33.874],[-3.898,33.892],[-3.917,33.906],[-3.936,33.899],[-3.956,33.891],[-3.948,33.909],[-3.932,33.926],[-3.921,33.944],[-3.933,33.96],[-3.913,33.968],[-3.894,33.975],[-3.874,33.984],[-3.856,33.993],[-3.839,34.003],[-3.846,34.024],[-3.866,34.033],[-3.883,34.046],[-3.881,34.066],[-3.869,34.089],[-3.856,34.105],[-3.842,34.12],[-3.834,34.147],[-3.816,34.159],[-3.795,34.164],[-3.753,34.166],[-3.746,34.186],[-3.766,34.193],[-3.787,34.193],[-3.809,34.2],[-3.827,34.208],[-3.848,34.215],[-3.867,34.221],[-3.886,34.231],[-3.892,34.25],[-3.909,34.262],[-3.907,34.282],[-3.908,34.303],[-3.888,34.303],[-3.867,34.307],[-3.852,34.321],[-3.835,34.333],[-3.837,34.354],[-3.856,34.362],[-3.846,34.38],[-3.841,34.4],[-3.859,34.41],[-3.852,34.429],[-3.852,34.451],[-3.837,34.464],[-3.815,34.468],[-3.797,34.477],[-3.783,34.494],[-3.774,34.514],[-3.761,34.531],[-3.745,34.545],[-3.758,34.562],[-3.766,34.581],[-3.763,34.603],[-3.748,34.617],[-3.738,34.636],[-3.726,34.652],[-3.71,34.64],[-3.69,34.627],[-3.669,34.629],[-3.651,34.642],[-3.632,34.651],[-3.644,34.674],[-3.643,34.701],[-3.622,34.702],[-3.602,34.704],[-3.581,34.709],[-3.603,34.714],[-3.619,34.729],[-3.616,34.753],[-3.593,34.758],[-3.596,34.778],[-3.589,34.806],[-3.608,34.816],[-3.596,34.838],[-3.622,34.854],[-3.645,34.859],[-3.665,34.863],[-3.686,34.87],[-3.707,34.868],[-3.726,34.866],[-3.747,34.864],[-3.736,34.882],[-3.756,34.888],[-3.777,34.893],[-3.795,34.884],[-3.818,34.893],[-3.835,34.91],[-3.821,34.929],[-3.819,34.949],[-3.811,34.968],[-3.806,34.988],[-3.811,35.007],[-3.817,35.027],[-3.814,35.047],[-3.81,35.067],[-3.817,35.089],[-3.828,35.107],[-3.832,35.127],[-3.824,35.147],[-3.81,35.162],[-3.813,35.185],[-3.802,35.204],[-3.783,35.213],[-3.769,35.228],[-3.761,35.247],[-3.754,35.272],[-3.735,35.279],[-3.715,35.283],[-3.695,35.287],[-3.675,35.281],[-3.658,35.265],[-3.639,35.256],[-3.621,35.246],[-3.604,35.234],[-3.582,35.224],[-3.561,35.221],[-3.54,35.218],[-3.521,35.211],[-3.502,35.204],[-3.48,35.2],[-3.46,35.204],[-3.44,35.197],[-3.42,35.193],[-3.4,35.192],[-3.38,35.189],[-3.36,35.189],[-3.34,35.186],[-3.32,35.193],[-3.303,35.203],[-3.282,35.209],[-3.26,35.212],[-3.241,35.219],[-3.222,35.225],[-3.201,35.225],[-3.182,35.233],[-3.165,35.246],[-3.149,35.262],[-3.136,35.278],[-3.116,35.275],[-3.096,35.275],[-3.078,35.286],[-3.063,35.3],[-3.052,35.316],[-3.04,35.333],[-3.03,35.35],[-3.02,35.368],[-3.009,35.385],[-3.005,35.405],[-2.995,35.423],[-2.98,35.436],[-2.971990747421472,35.439863042233654]]]}},{"type":"Feature","properties":{"nom_region":"Tanger-Tétouan-Al Hoceima","Indice":1,"Population":3540012},"geometry":{"type":"Polygon","coordinates":[[[-5.394530234195042,35.909815641532255],[-5.374,35.916],[-5.355,35.911],[-5.34,35.898],[-5.315,35.897],[-5.294,35.903],[-5.306,35.885],[-5.326,35.88],[-5.345,35.867],[-5.353,35.848],[-5.352,35.827],[-5.35,35.807],[-5.349,35.783],[-5.345,35.761],[-5.34,35.736],[-5.335,35.716],[-5.328,35.698],[-5.314,35.683],[-5.294,35.686],[-5.274,35.686],[-5.283,35.668],[-5.279,35.646],[-5.272,35.626],[-5.266,35.607],[-5.258,35.586],[-5.25,35.567],[-5.24,35.549],[-5.22,35.544],[-5.2,35.541],[-5.181,35.534],[-5.166,35.522],[-5.154,35.505],[-5.136,35.495],[-5.119,35.484],[-5.102,35.471],[-5.092,35.454],[-5.081,35.437],[-5.071,35.418],[-5.055,35.405],[-5.035,35.401],[-5.012,35.398],[-4.997,35.383],[-4.982,35.371],[-4.963,35.355],[-4.948,35.342],[-4.934,35.327],[-4.918,35.314],[-4.898,35.306],[-4.879,35.3],[-4.86,35.294],[-4.844,35.278],[-4.822,35.262],[-4.801,35.254],[-4.786,35.241],[-4.766,35.234],[-4.748,35.224],[-4.728,35.22],[-4.709,35.214],[-4.69,35.208],[-4.67,35.207],[-4.651,35.214],[-4.633,35.197],[-4.614,35.19],[-4.593,35.191],[-4.573,35.187],[-4.553,35.183],[-4.531,35.178],[-4.511,35.177],[-4.491,35.176],[-4.47,35.166],[-4.45,35.162],[-4.431,35.156],[-4.41,35.159],[-4.39,35.155],[-4.371,35.148],[-4.351,35.15],[-4.332,35.156],[-4.315,35.167],[-4.295,35.171],[-4.276,35.18],[-4.256,35.187],[-4.237,35.185],[-4.216,35.185],[-4.197,35.194],[-4.178,35.198],[-4.158,35.2],[-4.137,35.201],[-4.116,35.205],[-4.099,35.216],[-4.08,35.223],[-4.061,35.229],[-4.042,35.236],[-4.022,35.239],[-4.003,35.234],[-3.983,35.236],[-3.965,35.245],[-3.947,35.255],[-3.927,35.262],[-3.925,35.242],[-3.914,35.225],[-3.9,35.211],[-3.88,35.204],[-3.861,35.199],[-3.839,35.197],[-3.82,35.192],[-3.805,35.177],[-3.814,35.158],[-3.826,35.14],[-3.831,35.119],[-3.829,35.098],[-3.814,35.084],[-3.81,35.063],[-3.815,35.043],[-3.817,35.023],[-3.81,35.003],[-3.808,34.983],[-3.813,34.963],[-3.82,34.944],[-3.829,34.924],[-3.829,34.903],[-3.833,34.883],[-3.848,34.868],[-3.869,34.86],[-3.889,34.857],[-3.91,34.851],[-3.93,34.848],[-3.948,34.841],[-3.969,34.842],[-3.99,34.841],[-4.009,34.835],[-4.029,34.833],[-4.039,34.814],[-4.056,34.8],[-4.071,34.787],[-4.091,34.77],[-4.109,34.76],[-4.129,34.755],[-4.142,34.739],[-4.159,34.751],[-4.179,34.751],[-4.199,34.753],[-4.22,34.753],[-4.237,34.765],[-4.244,34.784],[-4.238,34.803],[-4.258,34.804],[-4.27,34.788],[-4.288,34.778],[-4.304,34.765],[-4.297,34.746],[-4.314,34.734],[-4.322,34.713],[-4.342,34.71],[-4.363,34.709],[-4.382,34.715],[-4.404,34.719],[-4.42,34.707],[-4.42,34.686],[-4.442,34.687],[-4.446,34.667],[-4.466,34.672],[-4.485,34.683],[-4.504,34.691],[-4.522,34.699],[-4.545,34.698],[-4.566,34.688],[-4.583,34.7],[-4.594,34.717],[-4.613,34.722],[-4.633,34.711],[-4.654,34.707],[-4.671,34.718],[-4.692,34.717],[-4.714,34.724],[-4.737,34.724],[-4.754,34.735],[-4.773,34.741],[-4.784,34.759],[-4.788,34.778],[-4.789,34.8],[-4.8,34.818],[-4.795,34.84],[-4.815,34.837],[-4.834,34.828],[-4.853,34.824],[-4.874,34.826],[-4.894,34.823],[-4.911,34.812],[-4.931,34.808],[-4.951,34.807],[-4.972,34.8],[-4.991,34.795],[-5.012,34.795],[-5.03,34.804],[-5.051,34.801],[-5.07,34.794],[-5.089,34.787],[-5.108,34.78],[-5.126,34.77],[-5.146,34.77],[-5.162,34.757],[-5.17,34.739],[-5.187,34.728],[-5.18,34.709],[-5.183,34.689],[-5.188,34.669],[-5.178,34.649],[-5.177,34.625],[-5.181,34.6],[-5.176,34.58],[-5.177,34.56],[-5.195,34.551],[-5.215,34.563],[-5.235,34.561],[-5.254,34.553],[-5.259,34.534],[-5.274,34.521],[-5.292,34.506],[-5.313,34.511],[-5.333,34.52],[-5.351,34.53],[-5.37,34.536],[-5.39,34.541],[-5.409,34.547],[-5.426,34.537],[-5.436,34.555],[-5.43,34.574],[-5.413,34.586],[-5.427,34.603],[-5.442,34.617],[-5.457,34.632],[-5.477,34.63],[-5.494,34.64],[-5.514,34.644],[-5.523,34.663],[-5.543,34.665],[-5.553,34.686],[-5.571,34.696],[-5.578,34.716],[-5.593,34.729],[-5.614,34.727],[-5.633,34.734],[-5.663,34.737],[-5.669,34.716],[-5.682,34.698],[-5.7,34.689],[-5.719,34.699],[-5.734,34.713],[-5.75,34.727],[-5.774,34.736],[-5.765,34.755],[-5.762,34.776],[-5.781,34.786],[-5.785,34.806],[-5.796,34.823],[-5.788,34.842],[-5.778,34.86],[-5.78,34.883],[-5.777,34.903],[-5.76,34.917],[-5.774,34.932],[-5.795,34.939],[-5.815,34.941],[-5.841,34.942],[-5.861,34.938],[-5.881,34.934],[-5.901,34.938],[-5.919,34.949],[-5.939,34.952],[-5.956,34.942],[-5.951,34.962],[-5.956,34.982],[-5.975,34.99],[-5.995,34.995],[-6.012,34.985],[-6.033,34.983],[-6.055,34.979],[-6.073,34.968],[-6.079,34.988],[-6.09,35.011],[-6.111,35.018],[-6.132,35.005],[-6.149,34.996],[-6.171,34.99],[-6.191,34.992],[-6.21,35.001],[-6.232,34.999],[-6.236,35.019],[-6.229,35.037],[-6.222,35.057],[-6.216,35.077],[-6.209,35.096],[-6.202,35.115],[-6.192,35.133],[-6.185,35.152],[-6.177,35.171],[-6.17,35.191],[-6.151,35.203],[-6.142,35.223],[-6.131,35.253],[-6.123,35.271],[-6.115,35.292],[-6.108,35.315],[-6.101,35.334],[-6.094,35.353],[-6.088,35.373],[-6.081,35.392],[-6.07,35.409],[-6.061,35.428],[-6.054,35.447],[-6.043,35.464],[-6.027,35.48],[-6.019,35.498],[-6.012,35.522],[-6.004,35.55],[-5.995,35.57],[-5.988,35.598],[-5.98,35.624],[-5.974,35.646],[-5.97,35.666],[-5.96,35.689],[-5.951,35.718],[-5.942,35.74],[-5.94,35.76],[-5.931,35.78],[-5.916,35.796],[-5.896,35.8],[-5.874,35.797],[-5.853,35.798],[-5.833,35.794],[-5.813,35.791],[-5.797,35.777],[-5.776,35.781],[-5.758,35.791],[-5.748,35.809],[-5.732,35.821],[-5.714,35.83],[-5.695,35.835],[-5.674,35.833],[-5.655,35.827],[-5.635,35.833],[-5.615,35.832],[-5.594,35.832],[-5.575,35.839],[-5.556,35.845],[-5.544,35.867],[-5.524,35.871],[-5.508,35.884],[-5.495,35.9],[-5.476,35.906],[-5.457,35.914],[-5.437,35.91],[-5.416,35.91],[-5.398,35.918],[-5.394530234195042,35.909815641532255]]]}},{"type":"Feature","properties":{"nom_region":"Guelmim-Oued Noun","Indice":10,"Population":414489},"geometry":{"type":"Polygon","coordinates":[[[-10.002339826556842,29.624772469541476],[-10.002,29.605],[-9.987,29.585],[-9.994,29.566],[-9.99,29.546],[-9.995,29.526],[-9.982,29.509],[-9.97,29.528],[-9.951,29.544],[-9.923,29.539],[-9.902,29.544],[-9.913,29.524],[-9.915,29.501],[-9.904,29.484],[-9.892,29.463],[-9.878,29.449],[-9.863,29.435],[-9.846,29.424],[-9.827,29.428],[-9.805,29.431],[-9.78,29.43],[-9.758,29.445],[-9.727,29.455],[-9.721,29.479],[-9.699,29.474],[-9.702,29.454],[-9.682,29.446],[-9.663,29.443],[-9.649,29.427],[-9.638,29.445],[-9.644,29.465],[-9.623,29.461],[-9.613,29.444],[-9.593,29.441],[-9.58,29.457],[-9.569,29.474],[-9.548,29.478],[-9.526,29.472],[-9.533,29.453],[-9.517,29.438],[-9.477,29.458],[-9.46,29.447],[-9.443,29.436],[-9.425,29.426],[-9.417,29.444],[-9.405,29.46],[-9.384,29.461],[-9.366,29.481],[-9.355,29.498],[-9.336,29.503],[-9.315,29.505],[-9.295,29.499],[-9.277,29.478],[-9.257,29.483],[-9.237,29.482],[-9.228,29.463],[-9.218,29.438],[-9.198,29.429],[-9.17,29.4],[-9.144,29.396],[-9.145,29.368],[-9.144,29.332],[-9.139,29.309],[-9.139,29.287],[-9.138,29.266],[-9.118,29.258],[-9.104,29.244],[-9.086,29.227],[-9.08,29.198],[-9.08,29.171],[-9.094,29.154],[-9.113,29.144],[-9.129,29.125],[-9.153,29.107],[-9.136,29.089],[-9.206,29.038],[-9.198,29.007],[-9.176,28.988],[-9.172,28.928],[-9.245,28.904],[-9.267,28.89],[-9.266,28.858],[-9.264,28.822],[-9.231,28.807],[-9.237,28.782],[-9.203,28.736],[-9.188,28.72],[-9.181,28.689],[-9.133,28.694],[-9.12,28.664],[-9.158,28.593],[-9.071,28.618],[-9.028,28.624],[-8.843,28.664],[-8.728,28.715],[-8.552,28.77],[-8.536,28.74],[-8.576,28.719],[-8.649,28.636],[-8.655,28.083],[-8.656,27.995],[-8.666,26.978],[-8.666,26.95],[-8.688,26.95],[-8.739,26.95],[-8.769,26.955],[-8.833,26.981],[-8.856,26.992],[-8.888,27.012],[-8.913,27.033],[-8.944,27.062],[-8.972,27.095],[-8.99,27.119],[-9.004,27.139],[-9.039,27.181],[-9.057,27.205],[-9.088,27.243],[-9.107,27.272],[-9.128,27.298],[-9.141,27.314],[-9.165,27.344],[-9.179,27.362],[-9.194,27.385],[-9.213,27.409],[-9.232,27.43],[-9.25,27.441],[-9.278,27.446],[-9.301,27.438],[-9.322,27.422],[-9.341,27.41],[-9.364,27.396],[-9.389,27.388],[-9.411,27.384],[-9.451,27.382],[-9.49,27.381],[-9.52,27.374],[-9.58,27.359],[-9.657,27.396],[-9.693,27.427],[-9.75,27.497],[-9.772,27.526],[-9.785,27.542],[-9.836,27.61],[-9.911,27.619],[-10.006,27.631],[-10.031,27.634],[-10.081,27.638],[-10.428,27.655],[-10.513,27.61],[-10.585,27.587],[-10.612,27.579],[-10.635,27.572],[-10.707,27.549],[-10.76,27.564],[-11.045,27.641],[-11.07,27.648],[-11.104,27.657],[-11.254,27.698],[-11.337,27.72],[-11.557,27.688],[-11.594,27.683],[-11.568,27.709],[-11.657,27.72],[-11.71,27.726],[-11.731,27.728],[-11.809,27.872],[-11.826,27.894],[-11.844,27.918],[-11.856,27.985],[-11.904,28.038],[-11.883,28.063],[-11.873,28.093],[-11.853,28.13],[-11.862,28.155],[-11.871,28.177],[-11.777,28.212],[-11.723,28.231],[-11.678,28.248],[-11.635,28.261],[-11.585,28.276],[-11.562,28.284],[-11.508,28.305],[-11.492,28.32],[-11.471,28.331],[-11.45,28.351],[-11.441,28.376],[-11.425,28.39],[-11.404,28.408],[-11.389,28.431],[-11.363,28.452],[-11.352,28.475],[-11.342,28.492],[-11.326,28.51],[-11.278,28.548],[-11.234,28.587],[-11.222,28.604],[-11.206,28.619],[-11.164,28.646],[-11.126,28.685],[-11.106,28.693],[-11.091,28.706],[-11.079,28.723],[-11.07,28.742],[-11.053,28.753],[-11.035,28.763],[-11.014,28.771],[-10.994,28.779],[-10.967,28.794],[-10.946,28.802],[-10.927,28.81],[-10.907,28.819],[-10.886,28.83],[-10.863,28.839],[-10.807,28.865],[-10.73,28.903],[-10.708,28.913],[-10.686,28.924],[-10.662,28.937],[-10.616,28.963],[-10.594,28.976],[-10.577,28.987],[-10.558,28.999],[-10.537,29.013],[-10.519,29.026],[-10.504,29.04],[-10.485,29.055],[-10.469,29.07],[-10.458,29.087],[-10.44,29.1],[-10.429,29.119],[-10.416,29.139],[-10.401,29.153],[-10.39,29.169],[-10.375,29.186],[-10.36,29.201],[-10.345,29.215],[-10.331,29.231],[-10.316,29.243],[-10.3,29.256],[-10.281,29.267],[-10.263,29.277],[-10.244,29.289],[-10.228,29.301],[-10.213,29.316],[-10.206,29.336],[-10.193,29.352],[-10.185,29.372],[-10.172,29.389],[-10.158,29.404],[-10.144,29.419],[-10.127,29.434],[-10.114,29.45],[-10.105,29.468],[-10.096,29.485],[-10.08,29.498],[-10.071,29.516],[-10.067,29.536],[-10.057,29.555],[-10.053,29.574],[-10.04,29.59],[-10.029,29.607],[-10.017,29.623],[-10.002339826556842,29.624772469541476]]]}},{"type":"Feature","properties":{"nom_region":"Eddakhla-Oued Eddahab","Indice":12,"Population":114021},"geometry":{"type":"Polygon","coordinates":[[[-14.901419978382224,24.68251285732816],[-14.885,24.662],[-14.861,24.652],[-14.819,24.651],[-14.767,24.648],[-14.733,24.648],[-14.701,24.631],[-14.678,24.605],[-14.652,24.563],[-14.629,24.523],[-14.606,24.507],[-14.579,24.488],[-14.547,24.482],[-14.487,24.495],[-14.461,24.509],[-14.426,24.528],[-14.405,24.537],[-14.381,24.534],[-14.356,24.527],[-14.323,24.532],[-14.299,24.544],[-14.261,24.546],[-14.235,24.546],[-14.214,24.538],[-14.182,24.562],[-14.161,24.578],[-14.136,24.585],[-14.114,24.586],[-14.082,24.583],[-13.96,24.553],[-13.93,24.545],[-13.875,24.532],[-13.837,24.522],[-13.809,24.514],[-13.767,24.511],[-13.714,24.501],[-13.689,24.494],[-13.662,24.492],[-13.626,24.49],[-13.603,24.49],[-13.572,24.493],[-13.549,24.498],[-13.507,24.518],[-13.442,24.549],[-13.423,24.555],[-13.393,24.562],[-13.352,24.579],[-13.321,24.591],[-13.284,24.597],[-13.248,24.603],[-13.218,24.606],[-13.163,24.597],[-13.12,24.595],[-13.063,24.595],[-13.02,24.597],[-12.989,24.599],[-12.945,24.594],[-12.913,24.587],[-12.845,24.57],[-12.804,24.56],[-12.748,24.549],[-12.698,24.536],[-12.671,24.529],[-12.627,24.516],[-12.599,24.507],[-12.573,24.501],[-12.536,24.502],[-12.497,24.508],[-12.446,24.518],[-12.353,24.54],[-12.307,24.549],[-12.261,24.557],[-12.231,24.559],[-12.202,24.559],[-12.13,24.557],[-12.054,24.557],[-11.99,24.559],[-11.992,24.506],[-11.993,24.401],[-11.999,23.81],[-12.003,23.45],[-12.064,23.436],[-12.093,23.432],[-12.125,23.427],[-12.157,23.417],[-12.33,23.323],[-12.359,23.319],[-12.388,23.312],[-12.423,23.304],[-12.446,23.303],[-12.465,23.296],[-12.501,23.292],[-12.533,23.287],[-12.86,23.092],[-12.968,23.025],[-13.073,22.88],[-13.094,22.819],[-13.116,22.757],[-13.108,22.723],[-13.07,22.575],[-13.063,22.547],[-13.058,22.45],[-13.053,22.344],[-13.043,22.131],[-13.037,22.009],[-13.03,21.859],[-13.026,21.77],[-13.009,21.407],[-13.006,21.338],[-13.589,21.343],[-14.737,21.346],[-14.873,21.346],[-14.901,21.346],[-15.046,21.346],[-15.091,21.345],[-15.185,21.345],[-15.239,21.345],[-15.275,21.345],[-15.573,21.343],[-15.671,21.343],[-15.734,21.342],[-15.754,21.34],[-15.797,21.34],[-16.194,21.336],[-16.263,21.336],[-16.338,21.335],[-16.371,21.335],[-16.539,21.333],[-16.775,21.33],[-16.834,21.329],[-16.873,21.328],[-16.913,21.328],[-16.95,21.327],[-16.965,21.279],[-16.973,21.241],[-16.982,21.204],[-16.987,21.183],[-16.995,21.146],[-17.004,21.126],[-17.026,21.081],[-17.038,21.056],[-17.039,21.008],[-17.04,20.986],[-17.051,20.949],[-17.065,20.905],[-17.066,20.878],[-17.069,20.854],[-17.07,20.833],[-17.055,20.777],[-17.066,20.795],[-17.075,20.813],[-17.09,20.827],[-17.104,20.843],[-17.089,20.859],[-17.079,20.876],[-17.079,20.897],[-17.09,20.914],[-17.088,20.934],[-17.083,20.955],[-17.071,20.975],[-17.065,20.994],[-17.062,21.015],[-17.062,21.036],[-17.062,21.057],[-17.063,21.077],[-17.057,21.096],[-17.052,21.116],[-17.05,21.137],[-17.044,21.156],[-17.049,21.176],[-17.046,21.197],[-17.044,21.217],[-17.04,21.237],[-17.034,21.256],[-17.032,21.276],[-17.028,21.297],[-17.029,21.318],[-17.028,21.338],[-17.025,21.358],[-17.018,21.377],[-17.012,21.396],[-17.012,21.417],[-17.009,21.437],[-17.003,21.457],[-16.997,21.477],[-16.991,21.497],[-16.991,21.517],[-16.986,21.537],[-16.981,21.556],[-16.979,21.577],[-16.982,21.597],[-16.981,21.617],[-16.975,21.637],[-16.973,21.657],[-16.976,21.677],[-16.98,21.697],[-16.974,21.724],[-16.959,21.741],[-16.949,21.758],[-16.963,21.772],[-16.965,21.792],[-16.959,21.812],[-16.953,21.831],[-16.94,21.848],[-16.915,21.871],[-16.902,21.891],[-16.894,21.911],[-16.897,21.931],[-16.882,21.962],[-16.875,21.981],[-16.87,22.001],[-16.862,22.02],[-16.852,22.038],[-16.844,22.057],[-16.838,22.077],[-16.83,22.096],[-16.822,22.115],[-16.814,22.134],[-16.807,22.155],[-16.788,22.166],[-16.77,22.178],[-16.76,22.197],[-16.779,22.202],[-16.765,22.216],[-16.748,22.228],[-16.731,22.24],[-16.715,22.253],[-16.704,22.272],[-16.689,22.286],[-16.671,22.295],[-16.651,22.292],[-16.639,22.274],[-16.62,22.267],[-16.582,22.276],[-16.562,22.283],[-16.543,22.291],[-16.518,22.305],[-16.499,22.318],[-16.493,22.338],[-16.48,22.356],[-16.469,22.374],[-16.458,22.391],[-16.456,22.411],[-16.451,22.431],[-16.446,22.466],[-16.44,22.485],[-16.437,22.505],[-16.426,22.523],[-16.409,22.533],[-16.391,22.545],[-16.372,22.56],[-16.36,22.576],[-16.358,22.601],[-16.354,22.621],[-16.347,22.64],[-16.346,22.661],[-16.342,22.682],[-16.342,22.702],[-16.344,22.722],[-16.339,22.742],[-16.332,22.762],[-16.318,22.787],[-16.304,22.806],[-16.291,22.826],[-16.289,22.847],[-16.303,22.864],[-16.293,22.882],[-16.287,22.901],[-16.265,22.898],[-16.238,22.907],[-16.217,22.917],[-16.199,22.928],[-16.178,22.949],[-16.16,22.971],[-16.15,22.99],[-16.144,23.01],[-16.142,23.032],[-16.148,23.057],[-16.163,23.08],[-16.181,23.091],[-16.201,23.084],[-16.199,23.105],[-16.189,23.123],[-16.169,23.137],[-16.15,23.16],[-16.137,23.176],[-16.122,23.197],[-16.117,23.217],[-16.111,23.237],[-16.097,23.253],[-16.086,23.27],[-16.076,23.288],[-16.063,23.304],[-16.063,23.324],[-16.047,23.342],[-16.031,23.356],[-16.015,23.371],[-16,23.386],[-15.988,23.403],[-15.979,23.421],[-15.969,23.442],[-15.958,23.459],[-15.953,23.478],[-15.965,23.495],[-15.968,23.515],[-15.948,23.524],[-15.93,23.542],[-15.92,23.56],[-15.903,23.57],[-15.895,23.59],[-15.883,23.608],[-15.876,23.627],[-15.857,23.635],[-15.845,23.652],[-15.834,23.67],[-15.821,23.685],[-15.808,23.702],[-15.799,23.719],[-15.789,23.737],[-15.775,23.754],[-15.757,23.766],[-15.744,23.781],[-15.738,23.8],[-15.723,23.813],[-15.707,23.826],[-15.726,23.834],[-15.742,23.822],[-15.739,23.842],[-15.732,23.861],[-15.735,23.881],[-15.732,23.901],[-15.752,23.914],[-15.764,23.895],[-15.766,23.916],[-15.783,23.905],[-15.794,23.887],[-15.805,23.87],[-15.823,23.861],[-15.843,23.859],[-15.857,23.845],[-15.872,23.83],[-15.882,23.813],[-15.894,23.796],[-15.901,23.777],[-15.896,23.752],[-15.903,23.733],[-15.914,23.716],[-15.916,23.694],[-15.935,23.685],[-15.953,23.669],[-15.935,23.659],[-15.978,23.626],[-16.003,23.633],[-15.997,23.657],[-15.984,23.679],[-15.961,23.697],[-15.958,23.717],[-15.936,23.738],[-15.923,23.757],[-15.926,23.778],[-15.916,23.795],[-15.906,23.813],[-15.894,23.829],[-15.879,23.843],[-15.866,23.858],[-15.852,23.874],[-15.838,23.89],[-15.821,23.901],[-15.805,23.915],[-15.787,23.93],[-15.769,23.943],[-15.753,23.954],[-15.735,23.964],[-15.716,23.972],[-15.695,23.983],[-15.673,23.993],[-15.656,24.005],[-15.636,24.014],[-15.619,24.026],[-15.6,24.038],[-15.585,24.053],[-15.577,24.071],[-15.573,24.092],[-15.555,24.102],[-15.539,24.116],[-15.524,24.131],[-15.512,24.149],[-15.495,24.162],[-15.479,24.18],[-15.464,24.195],[-15.449,24.21],[-15.433,24.224],[-15.417,24.239],[-15.399,24.25],[-15.373,24.264],[-15.357,24.277],[-15.34,24.292],[-15.325,24.305],[-15.312,24.322],[-15.296,24.337],[-15.284,24.353],[-15.271,24.37],[-15.26,24.387],[-15.249,24.404],[-15.235,24.419],[-15.222,24.435],[-15.205,24.447],[-15.188,24.46],[-15.174,24.476],[-15.157,24.489],[-15.139,24.5],[-15.109,24.512],[-15.076,24.523],[-15.051,24.531],[-15.021,24.545],[-15.003,24.56],[-14.999,24.581],[-14.989,24.599],[-14.986,24.619],[-14.972,24.636],[-14.949,24.644],[-14.932,24.658],[-14.917,24.671],[-14.901419978382224,24.68251285732816]]]}},{"type":"Feature","properties":{"nom_region":"Béni Mellal-Khénifra","Indice":5,"Population":2512375},"geometry":{"type":"Polygon","coordinates":[[[-6.30146988609182,33.434822572449946],[-6.284,33.423],[-6.264,33.423],[-6.243,33.419],[-6.225,33.427],[-6.205,33.427],[-6.205,33.406],[-6.187,33.397],[-6.168,33.388],[-6.148,33.378],[-6.153,33.359],[-6.151,33.339],[-6.138,33.323],[-6.132,33.303],[-6.113,33.298],[-6.091,33.3],[-6.074,33.289],[-6.055,33.283],[-6.037,33.291],[-6.018,33.303],[-6.009,33.323],[-5.982,33.319],[-5.966,33.33],[-5.949,33.319],[-5.93,33.328],[-5.914,33.317],[-5.894,33.314],[-5.874,33.312],[-5.853,33.311],[-5.833,33.311],[-5.813,33.31],[-5.797,33.323],[-5.78,33.334],[-5.771,33.357],[-5.77,33.393],[-5.763,33.417],[-5.749,33.431],[-5.733,33.418],[-5.716,33.408],[-5.695,33.408],[-5.679,33.396],[-5.659,33.393],[-5.639,33.389],[-5.619,33.387],[-5.6,33.392],[-5.579,33.391],[-5.559,33.388],[-5.542,33.379],[-5.525,33.368],[-5.527,33.348],[-5.519,33.329],[-5.506,33.314],[-5.499,33.293],[-5.513,33.276],[-5.521,33.258],[-5.496,33.232],[-5.485,33.216],[-5.486,33.196],[-5.469,33.18],[-5.45,33.165],[-5.43,33.168],[-5.415,33.154],[-5.395,33.153],[-5.375,33.156],[-5.355,33.159],[-5.332,33.166],[-5.31,33.167],[-5.29,33.156],[-5.293,33.136],[-5.299,33.117],[-5.311,33.1],[-5.327,33.088],[-5.332,33.067],[-5.324,33.048],[-5.307,33.036],[-5.308,33.015],[-5.326,33],[-5.311,32.983],[-5.292,32.974],[-5.27,32.961],[-5.273,32.941],[-5.268,32.922],[-5.264,32.902],[-5.267,32.882],[-5.247,32.88],[-5.251,32.858],[-5.275,32.847],[-5.29,32.833],[-5.304,32.819],[-5.317,32.803],[-5.304,32.779],[-5.307,32.735],[-5.322,32.719],[-5.347,32.722],[-5.35,32.703],[-5.334,32.689],[-5.316,32.678],[-5.315,32.657],[-5.319,32.637],[-5.327,32.619],[-5.34,32.603],[-5.353,32.567],[-5.355,32.538],[-5.376,32.538],[-5.396,32.54],[-5.416,32.539],[-5.436,32.535],[-5.455,32.526],[-5.474,32.518],[-5.493,32.511],[-5.511,32.503],[-5.529,32.491],[-5.525,32.471],[-5.532,32.436],[-5.538,32.416],[-5.546,32.398],[-5.549,32.36],[-5.535,32.324],[-5.537,32.299],[-5.558,32.264],[-5.571,32.243],[-5.603,32.224],[-5.631,32.218],[-5.652,32.216],[-5.689,32.212],[-5.71,32.198],[-5.72,32.18],[-5.739,32.153],[-5.757,32.14],[-5.775,32.13],[-5.793,32.118],[-5.813,32.109],[-5.829,32.095],[-5.846,32.08],[-5.862,32.066],[-5.875,32.044],[-5.883,32.026],[-5.884,32.005],[-5.876,31.986],[-5.856,31.98],[-5.837,31.977],[-5.82,31.966],[-5.818,31.946],[-5.819,31.925],[-5.821,31.903],[-5.833,31.885],[-5.854,31.874],[-5.876,31.869],[-5.895,31.861],[-5.913,31.847],[-5.929,31.834],[-5.943,31.815],[-5.959,31.802],[-5.98,31.796],[-5.996,31.784],[-6.015,31.767],[-6.029,31.745],[-6.044,31.73],[-6.069,31.713],[-6.09,31.704],[-6.116,31.695],[-6.152,31.679],[-6.175,31.669],[-6.196,31.668],[-6.226,31.664],[-6.249,31.658],[-6.268,31.652],[-6.292,31.642],[-6.317,31.629],[-6.338,31.622],[-6.362,31.617],[-6.391,31.61],[-6.411,31.608],[-6.43,31.593],[-6.441,31.573],[-6.463,31.569],[-6.479,31.555],[-6.503,31.551],[-6.522,31.542],[-6.542,31.533],[-6.562,31.524],[-6.581,31.517],[-6.599,31.505],[-6.625,31.506],[-6.649,31.497],[-6.687,31.493],[-6.712,31.493],[-6.751,31.46],[-6.757,31.439],[-6.746,31.415],[-6.737,31.393],[-6.741,31.364],[-6.756,31.38],[-6.767,31.362],[-6.787,31.354],[-6.811,31.349],[-6.836,31.348],[-6.863,31.347],[-6.883,31.346],[-6.906,31.349],[-6.929,31.348],[-6.96,31.347],[-6.979,31.352],[-6.996,31.368],[-7.007,31.386],[-7.029,31.393],[-7.044,31.409],[-7.064,31.417],[-7.086,31.411],[-7.107,31.412],[-7.126,31.408],[-7.147,31.407],[-7.169,31.416],[-7.189,31.414],[-7.207,31.404],[-7.223,31.391],[-7.239,31.378],[-7.247,31.397],[-7.233,31.413],[-7.215,31.421],[-7.192,31.419],[-7.176,31.431],[-7.165,31.449],[-7.157,31.467],[-7.144,31.483],[-7.136,31.503],[-7.132,31.523],[-7.123,31.541],[-7.113,31.56],[-7.126,31.577],[-7.145,31.572],[-7.165,31.572],[-7.187,31.572],[-7.206,31.58],[-7.212,31.6],[-7.227,31.614],[-7.246,31.619],[-7.249,31.639],[-7.259,31.657],[-7.278,31.664],[-7.296,31.673],[-7.307,31.69],[-7.315,31.709],[-7.313,31.729],[-7.295,31.74],[-7.276,31.751],[-7.258,31.742],[-7.255,31.762],[-7.235,31.754],[-7.224,31.772],[-7.206,31.761],[-7.187,31.754],[-7.168,31.746],[-7.148,31.751],[-7.128,31.756],[-7.109,31.76],[-7.088,31.762],[-7.068,31.762],[-7.048,31.766],[-7.028,31.772],[-7.04,31.789],[-7.032,31.808],[-7.012,31.813],[-6.995,31.824],[-7.005,31.842],[-7.02,31.855],[-7.035,31.869],[-7.047,31.886],[-7.031,31.904],[-7.05,31.912],[-7.058,31.931],[-7.049,31.949],[-7.043,31.969],[-7.045,31.99],[-7.063,32.001],[-7.08,32.015],[-7.097,32.026],[-7.108,32.044],[-7.115,32.063],[-7.119,32.084],[-7.124,32.104],[-7.124,32.124],[-7.129,32.145],[-7.123,32.167],[-7.107,32.182],[-7.098,32.2],[-7.094,32.221],[-7.109,32.236],[-7.114,32.255],[-7.108,32.275],[-7.101,32.295],[-7.108,32.313],[-7.129,32.315],[-7.124,32.335],[-7.11,32.35],[-7.093,32.362],[-7.08,32.377],[-7.066,32.392],[-7.057,32.41],[-7.074,32.421],[-7.064,32.439],[-7.051,32.454],[-7.04,32.471],[-7.028,32.487],[-7.019,32.505],[-7.013,32.525],[-7.005,32.543],[-6.999,32.563],[-7.011,32.579],[-7,32.602],[-6.997,32.622],[-6.998,32.642],[-7.011,32.659],[-7.027,32.671],[-7.036,32.689],[-7.044,32.709],[-7.043,32.73],[-7.038,32.75],[-7.036,32.771],[-7.023,32.79],[-7.014,32.808],[-7.011,32.829],[-7.015,32.849],[-7.011,32.874],[-7.015,32.895],[-7.008,32.915],[-7.002,32.935],[-6.997,32.955],[-6.976,32.959],[-6.954,32.958],[-6.946,32.977],[-6.943,32.999],[-6.934,33.019],[-6.919,33.036],[-6.902,33.048],[-6.886,33.061],[-6.873,33.078],[-6.868,33.099],[-6.883,33.113],[-6.888,33.134],[-6.885,33.154],[-6.874,33.173],[-6.862,33.191],[-6.858,33.214],[-6.844,33.229],[-6.826,33.237],[-6.805,33.237],[-6.791,33.223],[-6.77,33.218],[-6.749,33.217],[-6.728,33.204],[-6.707,33.205],[-6.687,33.21],[-6.664,33.22],[-6.644,33.216],[-6.625,33.209],[-6.61,33.194],[-6.588,33.184],[-6.569,33.176],[-6.553,33.163],[-6.53,33.162],[-6.509,33.168],[-6.492,33.179],[-6.467,33.186],[-6.452,33.202],[-6.439,33.218],[-6.418,33.224],[-6.4,33.238],[-6.384,33.252],[-6.381,33.272],[-6.395,33.286],[-6.404,33.305],[-6.417,33.322],[-6.404,33.338],[-6.386,33.351],[-6.368,33.359],[-6.351,33.37],[-6.35,33.391],[-6.336,33.406],[-6.317,33.412],[-6.309,33.432],[-6.30146988609182,33.434822572449946]]]}},{"type":"Feature","properties":{"nom_region":"Drâa-Tafilalet","Indice":8,"Population":1627269},"geometry":{"type":"Polygon","coordinates":[[[-4.874516461973466,33.107521184501415],[-4.856,33.091],[-4.839,33.077],[-4.809,33.049],[-4.788,33.038],[-4.776,33.021],[-4.759,33.004],[-4.75,32.987],[-4.735,32.972],[-4.73,32.952],[-4.734,32.932],[-4.731,32.912],[-4.721,32.894],[-4.704,32.884],[-4.684,32.88],[-4.658,32.912],[-4.62,32.914],[-4.599,32.912],[-4.576,32.91],[-4.548,32.897],[-4.499,32.892],[-4.483,32.878],[-4.474,32.857],[-4.457,32.842],[-4.46,32.822],[-4.46,32.802],[-4.472,32.785],[-4.461,32.768],[-4.445,32.781],[-4.441,32.802],[-4.425,32.819],[-4.397,32.803],[-4.379,32.785],[-4.368,32.763],[-4.355,32.742],[-4.35,32.721],[-4.337,32.707],[-4.319,32.687],[-4.299,32.676],[-4.294,32.652],[-4.271,32.628],[-4.251,32.616],[-4.193,32.593],[-4.174,32.586],[-4.148,32.586],[-4.126,32.59],[-4.104,32.595],[-4.081,32.596],[-4.06,32.598],[-4.04,32.599],[-4.02,32.6],[-3.998,32.605],[-3.974,32.607],[-3.957,32.576],[-3.944,32.554],[-3.96,32.53],[-3.959,32.508],[-3.935,32.509],[-3.909,32.51],[-3.905,32.489],[-3.918,32.474],[-3.908,32.457],[-3.889,32.451],[-3.875,32.437],[-3.86,32.423],[-3.844,32.41],[-3.831,32.395],[-3.829,32.375],[-3.824,32.356],[-3.817,32.337],[-3.805,32.32],[-3.792,32.305],[-3.78,32.289],[-3.798,32.28],[-3.803,32.26],[-3.781,32.263],[-3.761,32.269],[-3.742,32.274],[-3.742,32.251],[-3.749,32.23],[-3.758,32.212],[-3.74,32.202],[-3.689,32.196],[-3.669,32.193],[-3.673,32.171],[-3.687,32.146],[-3.7,32.123],[-3.684,32.11],[-3.661,32.113],[-3.63,32.119],[-3.587,32.128],[-3.561,32.137],[-3.544,32.148],[-3.54,32.169],[-3.534,32.188],[-3.511,32.187],[-3.489,32.185],[-3.469,32.18],[-3.445,32.174],[-3.423,32.165],[-3.423,32.144],[-3.401,32.135],[-3.379,32.131],[-3.358,32.127],[-3.325,32.124],[-3.29,32.14],[-3.257,32.161],[-3.231,32.172],[-3.207,32.178],[-3.181,32.183],[-3.221,32.144],[-3.24,32.129],[-3.262,32.117],[-3.268,32.093],[-3.272,32.046],[-3.271,32.02],[-3.271,31.987],[-3.26,31.948],[-3.247,31.916],[-3.24,31.895],[-3.232,31.874],[-3.218,31.85],[-3.207,31.831],[-3.195,31.813],[-3.174,31.818],[-3.154,31.822],[-3.134,31.823],[-3.113,31.824],[-3.136,31.803],[-3.155,31.784],[-3.191,31.768],[-3.214,31.755],[-3.255,31.737],[-3.274,31.728],[-3.27,31.707],[-3.256,31.686],[-3.292,31.671],[-3.329,31.661],[-3.366,31.655],[-3.407,31.654],[-3.446,31.651],[-3.472,31.648],[-3.528,31.633],[-3.561,31.624],[-3.584,31.619],[-3.605,31.61],[-3.633,31.587],[-3.649,31.569],[-3.665,31.543],[-3.674,31.518],[-3.674,31.497],[-3.678,31.477],[-3.671,31.449],[-3.662,31.424],[-3.646,31.398],[-3.635,31.378],[-3.66,31.351],[-3.682,31.339],[-3.706,31.333],[-3.733,31.327],[-3.752,31.32],[-3.777,31.293],[-3.78,31.267],[-3.778,31.243],[-3.769,31.225],[-3.769,31.201],[-3.769,31.174],[-3.77,31.142],[-3.771,31.12],[-3.745,31.12],[-3.728,31.145],[-3.706,31.152],[-3.698,31.133],[-3.701,31.1],[-3.683,31.079],[-3.673,31.099],[-3.662,31.119],[-3.639,31.116],[-3.636,31.094],[-3.632,31.063],[-3.61,31.036],[-3.58,31.023],[-3.556,31.038],[-3.534,31.041],[-3.515,31.031],[-3.519,31.009],[-3.532,30.987],[-3.544,30.965],[-3.558,30.938],[-3.609,30.903],[-3.63,30.885],[-3.701,30.823],[-3.718,30.807],[-3.752,30.774],[-3.771,30.736],[-3.79,30.7],[-3.801,30.669],[-3.824,30.608],[-3.845,30.605],[-3.883,30.601],[-3.916,30.59],[-3.948,30.578],[-3.979,30.57],[-4.019,30.561],[-4.058,30.549],[-4.1,30.543],[-4.136,30.535],[-4.172,30.53],[-4.208,30.525],[-4.239,30.512],[-4.277,30.499],[-4.307,30.488],[-4.353,30.46],[-4.39,30.439],[-4.417,30.415],[-4.437,30.399],[-4.478,30.373],[-4.503,30.349],[-4.529,30.326],[-4.56,30.306],[-4.588,30.293],[-4.607,30.283],[-4.654,30.258],[-4.694,30.236],[-4.725,30.222],[-4.75,30.216],[-4.773,30.201],[-4.793,30.188],[-4.811,30.177],[-4.84,30.164],[-4.878,30.143],[-4.903,30.131],[-4.953,30.11],[-4.986,30.092],[-5.005,30.08],[-5.026,30.068],[-5.047,30.06],[-5.067,30.043],[-5.079,30.026],[-5.132,30.007],[-5.142,29.989],[-5.195,29.947],[-5.214,29.936],[-5.235,29.924],[-5.292,29.865],[-5.301,29.843],[-5.316,29.823],[-5.317,29.803],[-5.324,29.78],[-5.347,29.758],[-5.38,29.736],[-5.401,29.753],[-5.432,29.721],[-5.49,29.668],[-5.515,29.624],[-5.532,29.562],[-5.568,29.514],[-5.597,29.443],[-5.653,29.416],[-5.671,29.427],[-5.683,29.45],[-5.676,29.479],[-5.677,29.502],[-5.699,29.508],[-5.727,29.49],[-5.75,29.482],[-5.776,29.496],[-5.753,29.545],[-5.778,29.561],[-5.808,29.548],[-5.822,29.521],[-5.842,29.509],[-5.956,29.485],[-6,29.488],[-6.075,29.477],[-6.097,29.473],[-6.191,29.477],[-6.268,29.504],[-6.348,29.508],[-6.411,29.532],[-6.438,29.523],[-6.462,29.551],[-6.465,29.585],[-6.48,29.598],[-6.501,29.596],[-6.531,29.579],[-6.563,29.563],[-6.592,29.564],[-6.608,29.585],[-6.613,29.612],[-6.616,29.638],[-6.6,29.652],[-6.576,29.652],[-6.563,29.671],[-6.562,29.696],[-6.562,29.723],[-6.561,29.746],[-6.561,29.77],[-6.48,29.806],[-6.447,29.814],[-6.414,29.822],[-6.38,29.829],[-6.336,29.847],[-6.305,29.858],[-6.294,29.88],[-6.304,29.914],[-6.304,29.941],[-6.309,29.964],[-6.335,29.973],[-6.364,29.977],[-6.381,30.011],[-6.379,30.032],[-6.387,30.053],[-6.408,30.054],[-6.433,30.049],[-6.455,30.046],[-6.479,30.039],[-6.498,30.029],[-6.518,30.021],[-6.538,30.025],[-6.551,30.048],[-6.546,30.079],[-6.544,30.107],[-6.543,30.128],[-6.543,30.153],[-6.553,30.178],[-6.584,30.201],[-6.592,30.234],[-6.576,30.256],[-6.557,30.281],[-6.551,30.302],[-6.524,30.313],[-6.506,30.324],[-6.519,30.36],[-6.546,30.374],[-6.564,30.384],[-6.575,30.405],[-6.619,30.414],[-6.648,30.421],[-6.66,30.437],[-6.654,30.459],[-6.676,30.477],[-6.701,30.495],[-6.721,30.483],[-6.737,30.467],[-6.762,30.454],[-6.79,30.445],[-6.808,30.422],[-6.82,30.405],[-6.839,30.398],[-6.858,30.389],[-6.855,30.369],[-6.872,30.357],[-6.892,30.353],[-6.913,30.356],[-6.933,30.358],[-6.958,30.348],[-6.982,30.339],[-7.005,30.337],[-7.033,30.337],[-7.059,30.338],[-7.094,30.346],[-7.124,30.358],[-7.15,30.368],[-7.174,30.376],[-7.199,30.385],[-7.213,30.369],[-7.214,30.349],[-7.228,30.333],[-7.243,30.319],[-7.252,30.301],[-7.234,30.293],[-7.239,30.273],[-7.258,30.254],[-7.276,30.241],[-7.284,30.222],[-7.341,30.2],[-7.363,30.192],[-7.407,30.191],[-7.428,30.192],[-7.453,30.196],[-7.475,30.201],[-7.496,30.207],[-7.518,30.209],[-7.535,30.223],[-7.555,30.228],[-7.573,30.218],[-7.572,30.242],[-7.576,30.268],[-7.585,30.292],[-7.596,30.314],[-7.616,30.378],[-7.622,30.4],[-7.62,30.432],[-7.612,30.461],[-7.626,30.478],[-7.635,30.497],[-7.613,30.51],[-7.592,30.509],[-7.57,30.524],[-7.55,30.535],[-7.53,30.54],[-7.516,30.557],[-7.518,30.578],[-7.536,30.595],[-7.552,30.61],[-7.558,30.631],[-7.577,30.652],[-7.595,30.66],[-7.622,30.661],[-7.646,30.658],[-7.666,30.648],[-7.661,30.683],[-7.633,30.703],[-7.612,30.705],[-7.609,30.729],[-7.636,30.736],[-7.659,30.737],[-7.689,30.746],[-7.678,30.763],[-7.665,30.779],[-7.658,30.8],[-7.653,30.835],[-7.701,30.851],[-7.721,30.855],[-7.728,30.874],[-7.743,30.888],[-7.763,30.891],[-7.776,30.906],[-7.752,30.917],[-7.746,30.939],[-7.747,30.96],[-7.738,30.978],[-7.73,30.997],[-7.723,31.016],[-7.725,31.037],[-7.742,31.049],[-7.75,31.068],[-7.743,31.087],[-7.741,31.107],[-7.746,31.127],[-7.739,31.149],[-7.724,31.166],[-7.704,31.17],[-7.684,31.176],[-7.666,31.187],[-7.648,31.195],[-7.626,31.199],[-7.605,31.2],[-7.583,31.199],[-7.563,31.195],[-7.549,31.21],[-7.538,31.227],[-7.518,31.232],[-7.498,31.246],[-7.481,31.259],[-7.471,31.281],[-7.45,31.29],[-7.431,31.299],[-7.411,31.302],[-7.389,31.296],[-7.368,31.292],[-7.348,31.295],[-7.329,31.306],[-7.31,31.314],[-7.293,31.326],[-7.275,31.337],[-7.255,31.338],[-7.248,31.36],[-7.239,31.378],[-7.223,31.391],[-7.207,31.404],[-7.19,31.414],[-7.169,31.416],[-7.149,31.407],[-7.128,31.407],[-7.107,31.412],[-7.086,31.411],[-7.064,31.417],[-7.044,31.409],[-7.029,31.394],[-7.009,31.388],[-6.996,31.368],[-6.979,31.352],[-6.96,31.347],[-6.935,31.348],[-6.907,31.349],[-6.883,31.346],[-6.863,31.347],[-6.838,31.348],[-6.813,31.349],[-6.787,31.354],[-6.767,31.362],[-6.756,31.38],[-6.741,31.361],[-6.739,31.383],[-6.738,31.404],[-6.753,31.424],[-6.759,31.443],[-6.732,31.49],[-6.687,31.493],[-6.654,31.493],[-6.631,31.505],[-6.611,31.505],[-6.591,31.513],[-6.571,31.521],[-6.549,31.53],[-6.525,31.541],[-6.503,31.551],[-6.479,31.555],[-6.463,31.569],[-6.443,31.572],[-6.43,31.593],[-6.411,31.608],[-6.391,31.61],[-6.367,31.616],[-6.344,31.621],[-6.324,31.627],[-6.304,31.634],[-6.286,31.644],[-6.264,31.653],[-6.244,31.659],[-6.214,31.666],[-6.177,31.669],[-6.152,31.679],[-6.124,31.691],[-6.101,31.7],[-6.073,31.711],[-6.054,31.724],[-6.036,31.738],[-6.025,31.756],[-6.011,31.771],[-5.995,31.785],[-5.976,31.798],[-5.957,31.803],[-5.938,31.819],[-5.925,31.838],[-5.907,31.852],[-5.886,31.865],[-5.862,31.872],[-5.837,31.883],[-5.819,31.895],[-5.82,31.916],[-5.819,31.936],[-5.818,31.956],[-5.827,31.974],[-5.847,31.98],[-5.867,31.978],[-5.883,31.991],[-5.883,32.02],[-5.876,32.042],[-5.87,32.062],[-5.853,32.073],[-5.836,32.087],[-5.824,32.102],[-5.801,32.114],[-5.78,32.126],[-5.762,32.138],[-5.744,32.148],[-5.727,32.167],[-5.718,32.185],[-5.705,32.202],[-5.67,32.212],[-5.635,32.217],[-5.612,32.223],[-5.582,32.227],[-5.56,32.26],[-5.545,32.285],[-5.529,32.311],[-5.546,32.351],[-5.553,32.382],[-5.544,32.401],[-5.538,32.42],[-5.527,32.452],[-5.526,32.472],[-5.541,32.485],[-5.524,32.495],[-5.506,32.505],[-5.488,32.513],[-5.469,32.52],[-5.45,32.527],[-5.432,32.537],[-5.411,32.54],[-5.391,32.54],[-5.371,32.537],[-5.353,32.565],[-5.345,32.584],[-5.339,32.604],[-5.326,32.619],[-5.319,32.638],[-5.315,32.659],[-5.317,32.682],[-5.335,32.69],[-5.351,32.704],[-5.34,32.723],[-5.312,32.717],[-5.307,32.761],[-5.3,32.794],[-5.318,32.802],[-5.305,32.818],[-5.291,32.832],[-5.275,32.847],[-5.251,32.858],[-5.247,32.88],[-5.226,32.892],[-5.197,32.908],[-5.173,32.925],[-5.147,32.926],[-5.123,32.936],[-5.106,32.95],[-5.094,32.968],[-5.084,32.989],[-5.074,33.013],[-5.073,33.037],[-5.06,33.057],[-5.03,33.073],[-5,33.083],[-4.969,33.086],[-4.943,33.093],[-4.923,33.101],[-4.903,33.102],[-4.88,33.106],[-4.874516461973466,33.107521184501415]]]}},{"type":"Feature","properties":{"nom_region":"Marrakech-Safi","Indice":7,"Population":4504767},"geometry":{"type":"Polygon","coordinates":[[[-7.992204019887381,32.812585120762265],[-7.98,32.797],[-7.964,32.783],[-7.961,32.763],[-7.949,32.748],[-7.932,32.734],[-7.919,32.713],[-7.908,32.695],[-7.888,32.686],[-7.873,32.671],[-7.852,32.67],[-7.832,32.664],[-7.811,32.656],[-7.811,32.636],[-7.791,32.64],[-7.773,32.632],[-7.753,32.637],[-7.742,32.619],[-7.738,32.599],[-7.718,32.594],[-7.722,32.574],[-7.713,32.556],[-7.698,32.542],[-7.682,32.53],[-7.668,32.515],[-7.662,32.495],[-7.646,32.484],[-7.632,32.466],[-7.612,32.473],[-7.594,32.46],[-7.575,32.455],[-7.551,32.46],[-7.541,32.438],[-7.522,32.445],[-7.502,32.452],[-7.492,32.47],[-7.479,32.452],[-7.458,32.455],[-7.437,32.446],[-7.412,32.452],[-7.392,32.457],[-7.373,32.464],[-7.36,32.447],[-7.347,32.431],[-7.337,32.413],[-7.318,32.411],[-7.302,32.398],[-7.282,32.402],[-7.264,32.392],[-7.254,32.374],[-7.235,32.367],[-7.213,32.36],[-7.197,32.347],[-7.186,32.33],[-7.166,32.334],[-7.145,32.334],[-7.132,32.318],[-7.11,32.315],[-7.1,32.298],[-7.108,32.279],[-7.112,32.259],[-7.11,32.239],[-7.094,32.226],[-7.097,32.206],[-7.102,32.186],[-7.118,32.174],[-7.122,32.152],[-7.127,32.132],[-7.125,32.111],[-7.119,32.089],[-7.117,32.068],[-7.113,32.049],[-7.111,32.028],[-7.09,32.025],[-7.074,32.013],[-7.058,31.998],[-7.043,31.982],[-7.048,31.962],[-7.057,31.944],[-7.056,31.923],[-7.041,31.907],[-7.046,31.888],[-7.036,31.87],[-7.022,31.856],[-7.006,31.843],[-6.996,31.825],[-7.012,31.813],[-7.028,31.825],[-7.033,31.805],[-7.034,31.784],[-7.034,31.763],[-7.055,31.762],[-7.075,31.762],[-7.095,31.762],[-7.115,31.759],[-7.135,31.754],[-7.154,31.748],[-7.176,31.747],[-7.195,31.754],[-7.213,31.763],[-7.228,31.749],[-7.243,31.763],[-7.256,31.747],[-7.276,31.751],[-7.293,31.741],[-7.314,31.74],[-7.314,31.718],[-7.312,31.698],[-7.303,31.68],[-7.291,31.664],[-7.271,31.662],[-7.258,31.647],[-7.241,31.635],[-7.232,31.617],[-7.213,31.607],[-7.206,31.588],[-7.19,31.575],[-7.17,31.57],[-7.15,31.572],[-7.13,31.576],[-7.114,31.564],[-7.123,31.547],[-7.134,31.527],[-7.134,31.507],[-7.144,31.486],[-7.157,31.471],[-7.163,31.452],[-7.176,31.433],[-7.192,31.42],[-7.214,31.421],[-7.233,31.413],[-7.247,31.398],[-7.245,31.377],[-7.248,31.355],[-7.257,31.336],[-7.281,31.335],[-7.296,31.322],[-7.315,31.311],[-7.339,31.301],[-7.36,31.292],[-7.381,31.293],[-7.403,31.299],[-7.426,31.302],[-7.445,31.292],[-7.464,31.284],[-7.478,31.266],[-7.492,31.25],[-7.511,31.241],[-7.526,31.228],[-7.546,31.223],[-7.551,31.202],[-7.572,31.198],[-7.592,31.2],[-7.613,31.2],[-7.639,31.2],[-7.661,31.19],[-7.679,31.179],[-7.7,31.173],[-7.721,31.167],[-7.737,31.151],[-7.759,31.138],[-7.779,31.136],[-7.8,31.136],[-7.822,31.136],[-7.844,31.137],[-7.865,31.128],[-7.874,31.11],[-7.893,31.103],[-7.912,31.097],[-7.926,31.083],[-7.946,31.073],[-7.961,31.059],[-7.966,31.035],[-7.973,31.009],[-7.98,30.986],[-7.993,30.967],[-7.978,30.942],[-7.995,30.925],[-8.026,30.904],[-8.048,30.904],[-8.072,30.909],[-8.093,30.909],[-8.113,30.91],[-8.132,30.924],[-8.158,30.927],[-8.187,30.923],[-8.214,30.916],[-8.231,30.905],[-8.247,30.891],[-8.267,30.876],[-8.3,30.877],[-8.331,30.873],[-8.353,30.872],[-8.373,30.869],[-8.395,30.877],[-8.426,30.88],[-8.449,30.874],[-8.471,30.875],[-8.493,30.876],[-8.532,30.882],[-8.555,30.888],[-8.578,30.893],[-8.589,30.91],[-8.612,30.912],[-8.634,30.911],[-8.653,30.902],[-8.672,30.89],[-8.694,30.874],[-8.717,30.863],[-8.731,30.843],[-8.749,30.834],[-8.766,30.85],[-8.77,30.874],[-8.758,30.898],[-8.766,30.922],[-8.783,30.936],[-8.783,30.958],[-8.821,30.97],[-8.852,30.955],[-8.888,30.931],[-8.923,30.909],[-8.943,30.902],[-8.966,30.897],[-8.986,30.888],[-8.991,30.863],[-9.001,30.837],[-9.022,30.834],[-9.044,30.832],[-9.061,30.821],[-9.092,30.829],[-9.113,30.841],[-9.136,30.851],[-9.159,30.86],[-9.165,30.839],[-9.183,30.82],[-9.203,30.81],[-9.222,30.801],[-9.242,30.803],[-9.254,30.819],[-9.27,30.833],[-9.286,30.845],[-9.306,30.857],[-9.327,30.854],[-9.347,30.851],[-9.374,30.857],[-9.395,30.858],[-9.412,30.847],[-9.432,30.84],[-9.462,30.846],[-9.484,30.854],[-9.503,30.862],[-9.523,30.864],[-9.53,30.884],[-9.553,30.872],[-9.555,30.852],[-9.574,30.845],[-9.593,30.851],[-9.605,30.868],[-9.62,30.853],[-9.627,30.828],[-9.633,30.809],[-9.642,30.791],[-9.663,30.791],[-9.683,30.784],[-9.701,30.775],[-9.721,30.777],[-9.728,30.796],[-9.728,30.819],[-9.736,30.838],[-9.739,30.858],[-9.754,30.872],[-9.76,30.892],[-9.757,30.913],[-9.772,30.927],[-9.793,30.928],[-9.813,30.93],[-9.819,30.949],[-9.825,30.968],[-9.818,30.988],[-9.808,31.007],[-9.817,31.027],[-9.817,31.048],[-9.821,31.067],[-9.82,31.089],[-9.838,31.101],[-9.837,31.122],[-9.839,31.144],[-9.83,31.163],[-9.821,31.182],[-9.822,31.202],[-9.819,31.221],[-9.818,31.242],[-9.809,31.26],[-9.801,31.281],[-9.798,31.302],[-9.796,31.323],[-9.799,31.343],[-9.803,31.364],[-9.814,31.381],[-9.838,31.387],[-9.835,31.408],[-9.822,31.424],[-9.806,31.438],[-9.793,31.454],[-9.782,31.471],[-9.773,31.49],[-9.769,31.51],[-9.756,31.525],[-9.739,31.54],[-9.723,31.559],[-9.709,31.575],[-9.696,31.592],[-9.685,31.612],[-9.676,31.632],[-9.676,31.653],[-9.675,31.673],[-9.676,31.694],[-9.661,31.709],[-9.646,31.722],[-9.633,31.738],[-9.619,31.753],[-9.605,31.768],[-9.592,31.783],[-9.582,31.8],[-9.565,31.813],[-9.548,31.829],[-9.533,31.844],[-9.521,31.861],[-9.505,31.874],[-9.491,31.889],[-9.476,31.903],[-9.463,31.919],[-9.448,31.933],[-9.432,31.947],[-9.419,31.962],[-9.404,31.977],[-9.39,31.991],[-9.375,32.005],[-9.36,32.019],[-9.345,32.033],[-9.341,32.052],[-9.329,32.069],[-9.326,32.089],[-9.321,32.109],[-9.31,32.125],[-9.295,32.14],[-9.281,32.154],[-9.268,32.17],[-9.259,32.188],[-9.253,32.208],[-9.253,32.228],[-9.264,32.245],[-9.257,32.264],[-9.249,32.282],[-9.247,32.303],[-9.257,32.321],[-9.276,32.328],[-9.282,32.347],[-9.29,32.365],[-9.279,32.383],[-9.264,32.397],[-9.252,32.413],[-9.244,32.431],[-9.236,32.45],[-9.233,32.47],[-9.242,32.488],[-9.258,32.501],[-9.271,32.517],[-9.279,32.535],[-9.261,32.56],[-9.228,32.583],[-9.209,32.596],[-9.192,32.609],[-9.175,32.621],[-9.157,32.635],[-9.135,32.651],[-9.11,32.672],[-9.094,32.686],[-9.079,32.701],[-9.06,32.722],[-9.041,32.716],[-9.024,32.703],[-9.005,32.692],[-8.989,32.68],[-8.974,32.666],[-8.989,32.652],[-9.004,32.637],[-9.007,32.617],[-8.996,32.599],[-8.992,32.58],[-8.974,32.571],[-8.956,32.561],[-8.941,32.546],[-8.927,32.532],[-8.913,32.517],[-8.892,32.512],[-8.873,32.502],[-8.853,32.495],[-8.841,32.511],[-8.819,32.512],[-8.799,32.51],[-8.78,32.519],[-8.763,32.506],[-8.742,32.505],[-8.72,32.52],[-8.7,32.516],[-8.678,32.519],[-8.659,32.513],[-8.645,32.498],[-8.631,32.483],[-8.616,32.469],[-8.609,32.449],[-8.598,32.432],[-8.607,32.412],[-8.592,32.394],[-8.582,32.377],[-8.569,32.36],[-8.554,32.347],[-8.543,32.33],[-8.549,32.309],[-8.53,32.299],[-8.516,32.315],[-8.499,32.328],[-8.48,32.322],[-8.466,32.336],[-8.451,32.35],[-8.43,32.347],[-8.41,32.354],[-8.379,32.366],[-8.358,32.363],[-8.347,32.383],[-8.34,32.402],[-8.323,32.412],[-8.297,32.41],[-8.28,32.422],[-8.263,32.433],[-8.253,32.451],[-8.232,32.454],[-8.212,32.456],[-8.195,32.467],[-8.175,32.479],[-8.157,32.49],[-8.14,32.5],[-8.12,32.505],[-8.109,32.521],[-8.09,32.529],[-8.09,32.549],[-8.072,32.559],[-8.06,32.575],[-8.058,32.595],[-8.051,32.614],[-8.059,32.632],[-8.075,32.645],[-8.088,32.661],[-8.078,32.68],[-8.067,32.7],[-8.057,32.718],[-8.053,32.738],[-8.058,32.758],[-8.055,32.778],[-8.039,32.792],[-8.022,32.802],[-8.004,32.811],[-7.992204019887381,32.812585120762265]]]}},{"type":"Feature","properties":{"nom_region":"Grand Casablanca-Settat","Indice":6,"Population":6826773},"geometry":{"type":"Polygon","coordinates":[[[-7.119528038550161,33.82819374784581],[-7.107,33.812],[-7.096,33.796],[-7.075,33.799],[-7.06,33.786],[-7.047,33.771],[-7.036,33.752],[-7.029,33.733],[-7.024,33.712],[-7.025,33.691],[-7.015,33.672],[-7.005,33.655],[-6.997,33.636],[-7.004,33.617],[-6.989,33.602],[-6.971,33.59],[-6.952,33.601],[-6.932,33.594],[-6.916,33.581],[-6.901,33.566],[-6.883,33.575],[-6.868,33.562],[-6.856,33.546],[-6.835,33.549],[-6.815,33.548],[-6.795,33.551],[-6.775,33.548],[-6.769,33.528],[-6.774,33.509],[-6.796,33.503],[-6.813,33.493],[-6.825,33.477],[-6.844,33.469],[-6.854,33.45],[-6.862,33.432],[-6.847,33.417],[-6.825,33.416],[-6.817,33.398],[-6.81,33.379],[-6.812,33.359],[-6.825,33.342],[-6.829,33.319],[-6.838,33.301],[-6.825,33.284],[-6.829,33.263],[-6.833,33.243],[-6.847,33.228],[-6.858,33.208],[-6.865,33.188],[-6.877,33.168],[-6.888,33.149],[-6.887,33.129],[-6.878,33.111],[-6.875,33.09],[-6.878,33.069],[-6.893,33.056],[-6.909,33.044],[-6.926,33.028],[-6.938,33.011],[-6.945,32.982],[-6.954,32.963],[-6.975,32.959],[-6.993,32.967],[-6.999,32.948],[-7.006,32.923],[-7.011,32.904],[-7.01,32.883],[-7.016,32.859],[-7.016,32.839],[-7.014,32.815],[-7.016,32.795],[-7.03,32.78],[-7.036,32.759],[-7.04,32.739],[-7.043,32.719],[-7.049,32.699],[-7.039,32.682],[-7.025,32.667],[-7.008,32.656],[-6.998,32.638],[-6.997,32.615],[-7.004,32.593],[-7.008,32.573],[-6.997,32.556],[-7.005,32.538],[-7.014,32.52],[-7.021,32.501],[-7.029,32.482],[-7.043,32.467],[-7.053,32.449],[-7.068,32.436],[-7.052,32.422],[-7.06,32.403],[-7.072,32.385],[-7.086,32.369],[-7.101,32.356],[-7.117,32.343],[-7.129,32.327],[-7.152,32.33],[-7.18,32.335],[-7.197,32.347],[-7.213,32.36],[-7.234,32.366],[-7.254,32.374],[-7.264,32.392],[-7.282,32.402],[-7.302,32.398],[-7.318,32.411],[-7.337,32.406],[-7.342,32.426],[-7.355,32.442],[-7.368,32.457],[-7.389,32.46],[-7.409,32.455],[-7.427,32.445],[-7.442,32.458],[-7.464,32.461],[-7.469,32.441],[-7.481,32.458],[-7.498,32.47],[-7.509,32.454],[-7.527,32.443],[-7.55,32.449],[-7.568,32.468],[-7.588,32.46],[-7.603,32.476],[-7.62,32.464],[-7.637,32.476],[-7.649,32.493],[-7.669,32.499],[-7.674,32.519],[-7.686,32.536],[-7.701,32.551],[-7.72,32.556],[-7.721,32.577],[-7.728,32.596],[-7.741,32.611],[-7.754,32.627],[-7.773,32.632],[-7.792,32.64],[-7.812,32.636],[-7.815,32.659],[-7.835,32.664],[-7.856,32.668],[-7.876,32.673],[-7.891,32.69],[-7.91,32.701],[-7.918,32.72],[-7.933,32.735],[-7.95,32.748],[-7.963,32.765],[-7.968,32.784],[-7.984,32.797],[-7.995,32.814],[-8.014,32.808],[-8.034,32.796],[-8.05,32.783],[-8.06,32.765],[-8.053,32.746],[-8.055,32.722],[-8.067,32.704],[-8.084,32.692],[-8.079,32.673],[-8.085,32.652],[-8.069,32.64],[-8.054,32.626],[-8.051,32.606],[-8.062,32.589],[-8.06,32.569],[-8.077,32.558],[-8.087,32.541],[-8.104,32.53],[-8.112,32.511],[-8.131,32.504],[-8.148,32.492],[-8.166,32.483],[-8.183,32.472],[-8.2,32.461],[-8.221,32.459],[-8.241,32.454],[-8.262,32.442],[-8.273,32.424],[-8.292,32.416],[-8.311,32.409],[-8.332,32.41],[-8.346,32.389],[-8.352,32.37],[-8.379,32.366],[-8.402,32.363],[-8.419,32.349],[-8.439,32.347],[-8.459,32.344],[-8.475,32.329],[-8.498,32.331],[-8.515,32.319],[-8.527,32.301],[-8.547,32.301],[-8.545,32.325],[-8.549,32.345],[-8.568,32.353],[-8.575,32.372],[-8.589,32.388],[-8.605,32.4],[-8.598,32.419],[-8.601,32.44],[-8.608,32.459],[-8.622,32.473],[-8.636,32.488],[-8.65,32.502],[-8.665,32.517],[-8.685,32.511],[-8.706,32.513],[-8.728,32.516],[-8.746,32.503],[-8.766,32.511],[-8.786,32.514],[-8.807,32.511],[-8.828,32.517],[-8.846,32.504],[-8.864,32.497],[-8.884,32.508],[-8.904,32.512],[-8.922,32.523],[-8.937,32.54],[-8.949,32.555],[-8.967,32.567],[-8.984,32.577],[-8.996,32.593],[-9.006,32.612],[-9.007,32.632],[-8.994,32.648],[-8.978,32.662],[-8.988,32.68],[-9.005,32.692],[-9.023,32.701],[-9.039,32.715],[-9.054,32.728],[-9.035,32.737],[-9.024,32.754],[-9.007,32.766],[-8.99,32.777],[-8.974,32.789],[-8.957,32.801],[-8.941,32.813],[-8.923,32.825],[-8.907,32.837],[-8.892,32.851],[-8.877,32.865],[-8.858,32.885],[-8.841,32.899],[-8.826,32.912],[-8.811,32.926],[-8.795,32.94],[-8.783,32.956],[-8.768,32.97],[-8.753,32.984],[-8.74,32.999],[-8.723,33.013],[-8.708,33.028],[-8.696,33.045],[-8.683,33.061],[-8.668,33.074],[-8.653,33.089],[-8.64,33.105],[-8.637,33.125],[-8.619,33.135],[-8.623,33.155],[-8.618,33.174],[-8.605,33.19],[-8.589,33.202],[-8.576,33.217],[-8.556,33.224],[-8.546,33.241],[-8.529,33.253],[-8.512,33.264],[-8.497,33.25],[-8.477,33.245],[-8.444,33.253],[-8.414,33.267],[-8.39,33.281],[-8.374,33.294],[-8.344,33.317],[-8.326,33.335],[-8.315,33.352],[-8.3,33.366],[-8.279,33.368],[-8.26,33.375],[-8.241,33.38],[-8.221,33.383],[-8.201,33.39],[-8.184,33.401],[-8.164,33.406],[-8.143,33.412],[-8.123,33.418],[-8.098,33.429],[-8.078,33.437],[-8.058,33.443],[-8.036,33.452],[-8.016,33.457],[-7.996,33.466],[-7.976,33.476],[-7.956,33.481],[-7.936,33.484],[-7.913,33.494],[-7.893,33.501],[-7.875,33.51],[-7.854,33.518],[-7.834,33.529],[-7.811,33.529],[-7.794,33.54],[-7.771,33.543],[-7.752,33.553],[-7.733,33.563],[-7.714,33.573],[-7.697,33.584],[-7.68,33.594],[-7.661,33.603],[-7.64,33.605],[-7.62,33.608],[-7.596,33.619],[-7.617,33.606],[-7.595,33.606],[-7.575,33.607],[-7.557,33.616],[-7.537,33.62],[-7.519,33.63],[-7.501,33.641],[-7.484,33.653],[-7.466,33.664],[-7.449,33.676],[-7.433,33.688],[-7.415,33.7],[-7.401,33.716],[-7.388,33.734],[-7.394,33.714],[-7.374,33.71],[-7.353,33.715],[-7.34,33.731],[-7.323,33.742],[-7.305,33.753],[-7.287,33.767],[-7.268,33.781],[-7.248,33.792],[-7.23,33.804],[-7.21,33.804],[-7.189,33.808],[-7.171,33.817],[-7.15,33.82],[-7.132,33.828],[-7.119528038550161,33.82819374784581]]]}},{"type":"Feature","properties":{"nom_region":"Fés-Meknés","Indice":3,"Population":4216957},"geometry":{"type":"Polygon","coordinates":[[[-3.795234573850677,34.88390647173704],[-3.777,34.893],[-3.756,34.888],[-3.736,34.89],[-3.752,34.876],[-3.733,34.867],[-3.712,34.864],[-3.694,34.872],[-3.674,34.866],[-3.649,34.863],[-3.629,34.855],[-3.609,34.852],[-3.588,34.851],[-3.601,34.833],[-3.607,34.814],[-3.588,34.794],[-3.596,34.775],[-3.609,34.758],[-3.623,34.737],[-3.611,34.719],[-3.589,34.712],[-3.606,34.702],[-3.627,34.703],[-3.642,34.69],[-3.644,34.664],[-3.653,34.643],[-3.669,34.629],[-3.69,34.627],[-3.708,34.636],[-3.719,34.653],[-3.736,34.643],[-3.731,34.624],[-3.75,34.616],[-3.757,34.597],[-3.767,34.578],[-3.757,34.559],[-3.754,34.538],[-3.764,34.519],[-3.778,34.504],[-3.787,34.485],[-3.805,34.475],[-3.823,34.466],[-3.843,34.463],[-3.854,34.445],[-3.856,34.422],[-3.845,34.404],[-3.844,34.383],[-3.861,34.369],[-3.842,34.365],[-3.829,34.347],[-3.842,34.327],[-3.857,34.313],[-3.876,34.304],[-3.897,34.308],[-3.914,34.296],[-3.906,34.277],[-3.903,34.257],[-3.891,34.238],[-3.878,34.223],[-3.859,34.218],[-3.833,34.21],[-3.813,34.201],[-3.791,34.195],[-3.771,34.194],[-3.751,34.19],[-3.748,34.168],[-3.776,34.163],[-3.798,34.164],[-3.818,34.158],[-3.838,34.139],[-3.843,34.119],[-3.857,34.104],[-3.872,34.083],[-3.878,34.064],[-3.882,34.044],[-3.863,34.033],[-3.845,34.023],[-3.826,34.011],[-3.843,34],[-3.864,33.993],[-3.883,33.984],[-3.899,33.972],[-3.92,33.966],[-3.921,33.944],[-3.932,33.926],[-3.948,33.909],[-3.964,33.894],[-3.936,33.899],[-3.917,33.906],[-3.898,33.892],[-3.909,33.875],[-3.916,33.856],[-3.924,33.836],[-3.939,33.821],[-3.951,33.801],[-3.963,33.785],[-3.962,33.764],[-3.956,33.745],[-3.966,33.727],[-3.994,33.721],[-4.016,33.716],[-4.049,33.71],[-4.067,33.696],[-4.09,33.661],[-4.112,33.658],[-4.101,33.64],[-4.088,33.622],[-4.093,33.602],[-4.108,33.565],[-4.087,33.555],[-4.065,33.547],[-4.045,33.541],[-4.025,33.539],[-4.005,33.539],[-3.991,33.524],[-3.97,33.517],[-3.95,33.526],[-3.932,33.54],[-3.915,33.555],[-3.893,33.566],[-3.876,33.576],[-3.836,33.592],[-3.832,33.615],[-3.811,33.635],[-3.796,33.654],[-3.788,33.672],[-3.778,33.691],[-3.758,33.709],[-3.74,33.724],[-3.721,33.736],[-3.691,33.751],[-3.667,33.774],[-3.641,33.79],[-3.626,33.813],[-3.61,33.833],[-3.593,33.847],[-3.573,33.861],[-3.556,33.877],[-3.542,33.895],[-3.524,33.902],[-3.508,33.889],[-3.488,33.886],[-3.469,33.894],[-3.452,33.882],[-3.432,33.878],[-3.419,33.861],[-3.403,33.849],[-3.385,33.839],[-3.367,33.83],[-3.348,33.823],[-3.332,33.811],[-3.317,33.796],[-3.296,33.782],[-3.269,33.778],[-3.246,33.775],[-3.221,33.769],[-3.2,33.764],[-3.18,33.761],[-3.157,33.757],[-3.136,33.752],[-3.115,33.748],[-3.097,33.738],[-3.102,33.713],[-3.106,33.688],[-3.115,33.669],[-3.124,33.651],[-3.138,33.634],[-3.152,33.617],[-3.166,33.601],[-3.18,33.586],[-3.199,33.574],[-3.219,33.57],[-3.239,33.565],[-3.254,33.552],[-3.269,33.538],[-3.257,33.521],[-3.247,33.503],[-3.217,33.503],[-3.178,33.495],[-3.098,33.389],[-3.055,33.328],[-3.038,33.312],[-3.012,33.287],[-2.997,33.273],[-2.982,33.257],[-2.966,33.233],[-2.948,33.207],[-2.925,33.194],[-2.946,33.182],[-2.965,33.174],[-2.989,33.168],[-3.004,33.149],[-3.025,33.143],[-3.049,33.139],[-3.079,33.135],[-3.099,33.135],[-3.12,33.14],[-3.143,33.141],[-3.163,33.132],[-3.179,33.115],[-3.202,33.113],[-3.224,33.109],[-3.246,33.108],[-3.267,33.105],[-3.287,33.101],[-3.306,33.092],[-3.328,33.091],[-3.348,33.087],[-3.368,33.088],[-3.388,33.082],[-3.408,33.084],[-3.428,33.091],[-3.45,33.091],[-3.469,33.098],[-3.49,33.098],[-3.511,33.101],[-3.529,33.089],[-3.55,33.09],[-3.565,33.105],[-3.584,33.117],[-3.6,33.129],[-3.742,33.063],[-3.761,33.052],[-3.789,33.029],[-3.77,33.022],[-3.75,33.023],[-3.723,33.025],[-3.7,33.024],[-3.676,33.019],[-3.689,33.002],[-3.689,32.973],[-3.669,32.925],[-3.66,32.904],[-3.686,32.898],[-3.721,32.903],[-3.741,32.904],[-3.763,32.903],[-3.78,32.889],[-3.799,32.867],[-3.815,32.845],[-3.826,32.827],[-3.835,32.806],[-3.86,32.776],[-3.889,32.754],[-3.913,32.742],[-3.95,32.707],[-3.964,32.693],[-3.98,32.677],[-3.999,32.671],[-4.017,32.66],[-4.014,32.64],[-4.014,32.611],[-4.03,32.6],[-4.051,32.599],[-4.075,32.596],[-4.099,32.597],[-4.121,32.591],[-4.141,32.588],[-4.162,32.584],[-4.185,32.59],[-4.249,32.615],[-4.267,32.624],[-4.286,32.641],[-4.297,32.664],[-4.313,32.684],[-4.329,32.696],[-4.346,32.708],[-4.351,32.728],[-4.364,32.753],[-4.373,32.773],[-4.383,32.791],[-4.412,32.813],[-4.44,32.821],[-4.438,32.799],[-4.446,32.78],[-4.459,32.765],[-4.473,32.78],[-4.464,32.799],[-4.46,32.819],[-4.457,32.839],[-4.474,32.857],[-4.483,32.876],[-4.499,32.892],[-4.532,32.898],[-4.569,32.907],[-4.595,32.912],[-4.62,32.914],[-4.645,32.912],[-4.67,32.89],[-4.687,32.879],[-4.706,32.885],[-4.722,32.898],[-4.735,32.914],[-4.729,32.934],[-4.731,32.954],[-4.735,32.974],[-4.75,32.988],[-4.771,33.015],[-4.785,33.033],[-4.809,33.049],[-4.824,33.064],[-4.841,33.079],[-4.864,33.099],[-4.903,33.102],[-4.923,33.101],[-4.943,33.093],[-4.969,33.086],[-5,33.083],[-5.025,33.076],[-5.045,33.065],[-5.066,33.053],[-5.071,33.032],[-5.076,33.006],[-5.088,32.98],[-5.102,32.955],[-5.123,32.936],[-5.147,32.926],[-5.168,32.925],[-5.188,32.92],[-5.226,32.892],[-5.247,32.88],[-5.267,32.873],[-5.264,32.893],[-5.27,32.912],[-5.272,32.932],[-5.273,32.953],[-5.292,32.974],[-5.311,32.983],[-5.33,32.99],[-5.31,33.013],[-5.306,33.033],[-5.324,33.048],[-5.332,33.067],[-5.328,33.087],[-5.311,33.098],[-5.298,33.113],[-5.295,33.133],[-5.288,33.153],[-5.306,33.165],[-5.332,33.166],[-5.351,33.159],[-5.372,33.157],[-5.392,33.153],[-5.413,33.152],[-5.417,33.171],[-5.437,33.165],[-5.461,33.174],[-5.477,33.186],[-5.485,33.204],[-5.489,33.226],[-5.507,33.244],[-5.52,33.259],[-5.511,33.279],[-5.498,33.298],[-5.509,33.315],[-5.521,33.331],[-5.519,33.351],[-5.527,33.369],[-5.545,33.379],[-5.563,33.387],[-5.583,33.388],[-5.603,33.391],[-5.623,33.388],[-5.643,33.392],[-5.663,33.396],[-5.683,33.399],[-5.698,33.412],[-5.718,33.41],[-5.737,33.418],[-5.752,33.431],[-5.766,33.446],[-5.779,33.461],[-5.79,33.478],[-5.81,33.481],[-5.811,33.501],[-5.791,33.507],[-5.786,33.526],[-5.779,33.546],[-5.778,33.567],[-5.791,33.583],[-5.8,33.601],[-5.787,33.616],[-5.778,33.637],[-5.786,33.656],[-5.78,33.675],[-5.766,33.69],[-5.751,33.703],[-5.735,33.717],[-5.731,33.737],[-5.728,33.757],[-5.713,33.784],[-5.726,33.802],[-5.743,33.812],[-5.763,33.816],[-5.77,33.835],[-5.775,33.855],[-5.794,33.861],[-5.805,33.878],[-5.795,33.896],[-5.775,33.899],[-5.771,33.918],[-5.761,33.936],[-5.757,33.956],[-5.774,33.967],[-5.788,33.982],[-5.803,33.996],[-5.818,34.008],[-5.833,34.023],[-5.818,34.041],[-5.832,34.056],[-5.839,34.075],[-5.835,34.095],[-5.845,34.114],[-5.865,34.114],[-5.881,34.129],[-5.85,34.147],[-5.831,34.154],[-5.813,34.165],[-5.82,34.184],[-5.802,34.194],[-5.784,34.185],[-5.766,34.175],[-5.746,34.175],[-5.727,34.18],[-5.705,34.181],[-5.699,34.162],[-5.714,34.148],[-5.729,34.136],[-5.713,34.124],[-5.693,34.128],[-5.673,34.124],[-5.653,34.121],[-5.633,34.127],[-5.614,34.131],[-5.595,34.123],[-5.578,34.112],[-5.561,34.123],[-5.541,34.128],[-5.534,34.147],[-5.516,34.156],[-5.497,34.162],[-5.48,34.151],[-5.463,34.161],[-5.456,34.18],[-5.463,34.199],[-5.484,34.199],[-5.475,34.217],[-5.455,34.224],[-5.44,34.239],[-5.42,34.244],[-5.429,34.263],[-5.439,34.28],[-5.443,34.3],[-5.46,34.311],[-5.479,34.323],[-5.498,34.318],[-5.501,34.337],[-5.512,34.355],[-5.53,34.364],[-5.514,34.376],[-5.494,34.38],[-5.474,34.382],[-5.457,34.393],[-5.437,34.399],[-5.417,34.402],[-5.399,34.411],[-5.387,34.43],[-5.378,34.449],[-5.358,34.451],[-5.342,34.463],[-5.334,34.482],[-5.334,34.502],[-5.315,34.511],[-5.295,34.505],[-5.28,34.518],[-5.262,34.529],[-5.262,34.55],[-5.242,34.556],[-5.225,34.566],[-5.207,34.557],[-5.186,34.558],[-5.174,34.574],[-5.181,34.6],[-5.179,34.62],[-5.176,34.642],[-5.185,34.66],[-5.188,34.68],[-5.18,34.699],[-5.186,34.718],[-5.177,34.736],[-5.162,34.749],[-5.157,34.768],[-5.136,34.77],[-5.116,34.776],[-5.097,34.781],[-5.079,34.791],[-5.058,34.793],[-5.041,34.806],[-5.025,34.795],[-5,34.794],[-4.979,34.8],[-4.958,34.806],[-4.938,34.811],[-4.919,34.807],[-4.903,34.82],[-4.884,34.825],[-4.864,34.826],[-4.843,34.824],[-4.823,34.829],[-4.805,34.836],[-4.799,34.817],[-4.789,34.798],[-4.788,34.777],[-4.785,34.757],[-4.773,34.74],[-4.752,34.735],[-4.727,34.724],[-4.705,34.718],[-4.684,34.717],[-4.663,34.716],[-4.645,34.707],[-4.624,34.714],[-4.606,34.723],[-4.588,34.712],[-4.578,34.694],[-4.558,34.695],[-4.538,34.699],[-4.515,34.7],[-4.498,34.689],[-4.48,34.681],[-4.462,34.671],[-4.446,34.658],[-4.446,34.679],[-4.424,34.685],[-4.424,34.705],[-4.409,34.719],[-4.39,34.725],[-4.378,34.708],[-4.358,34.709],[-4.336,34.708],[-4.319,34.721],[-4.307,34.738],[-4.308,34.758],[-4.294,34.773],[-4.277,34.784],[-4.262,34.798],[-4.245,34.808],[-4.243,34.788],[-4.238,34.767],[-4.222,34.753],[-4.202,34.753],[-4.182,34.752],[-4.162,34.751],[-4.155,34.732],[-4.139,34.746],[-4.121,34.757],[-4.102,34.765],[-4.084,34.777],[-4.068,34.788],[-4.053,34.803],[-4.038,34.817],[-4.025,34.832],[-4.006,34.839],[-3.984,34.842],[-3.964,34.841],[-3.944,34.843],[-3.925,34.848],[-3.902,34.853],[-3.879,34.859],[-3.859,34.863],[-3.839,34.87],[-3.829,34.889],[-3.809,34.895],[-3.795234573850677,34.88390647173704]]]}},{"type":"Feature","properties":{"nom_region":"Laayoune-Sakia El Hamra","Indice":11,"Population":340748},"geometry":{"type":"Polygon","coordinates":[[[-11.87326216750798,28.092544521163823],[-11.873,28.072],[-11.904,28.044],[-11.863,27.992],[-11.856,27.932],[-11.832,27.902],[-11.809,27.872],[-11.747,27.73],[-11.71,27.726],[-11.657,27.72],[-11.568,27.709],[-11.594,27.683],[-11.557,27.688],[-11.351,27.724],[-11.254,27.698],[-11.104,27.657],[-11.07,27.648],[-11.045,27.641],[-10.76,27.564],[-10.71,27.55],[-10.635,27.572],[-10.612,27.579],[-10.585,27.587],[-10.513,27.61],[-10.428,27.655],[-10.081,27.638],[-10.049,27.636],[-10.006,27.631],[-9.911,27.619],[-9.836,27.61],[-9.785,27.542],[-9.772,27.526],[-9.75,27.497],[-9.703,27.436],[-9.657,27.396],[-9.58,27.359],[-9.52,27.374],[-9.492,27.38],[-9.465,27.382],[-9.411,27.384],[-9.391,27.388],[-9.364,27.396],[-9.341,27.41],[-9.322,27.422],[-9.301,27.438],[-9.278,27.446],[-9.25,27.441],[-9.232,27.43],[-9.213,27.409],[-9.194,27.385],[-9.179,27.362],[-9.165,27.344],[-9.141,27.314],[-9.128,27.298],[-9.107,27.272],[-9.088,27.243],[-9.057,27.205],[-9.039,27.181],[-9.015,27.152],[-8.99,27.119],[-8.972,27.095],[-8.958,27.076],[-8.913,27.033],[-8.888,27.012],[-8.856,26.992],[-8.833,26.981],[-8.786,26.963],[-8.739,26.95],[-8.698,26.95],[-8.666,26.95],[-8.666,26.921],[-8.665,26.895],[-8.659,26.556],[-8.658,26.522],[-8.649,25.987],[-10.902,25.998],[-10.925,25.998],[-11.288,25.995],[-11.641,25.992],[-12.003,25.995],[-12.007,25.97],[-11.998,25.098],[-11.99,24.559],[-12.054,24.557],[-12.13,24.557],[-12.185,24.555],[-12.231,24.559],[-12.261,24.557],[-12.307,24.549],[-12.353,24.54],[-12.446,24.518],[-12.497,24.508],[-12.536,24.502],[-12.573,24.501],[-12.599,24.507],[-12.627,24.516],[-12.671,24.529],[-12.698,24.536],[-12.748,24.549],[-12.804,24.56],[-12.828,24.563],[-12.913,24.587],[-12.945,24.594],[-12.97,24.599],[-13.02,24.597],[-13.063,24.595],[-13.12,24.595],[-13.163,24.597],[-13.198,24.604],[-13.228,24.605],[-13.284,24.597],[-13.321,24.591],[-13.352,24.579],[-13.376,24.569],[-13.405,24.558],[-13.442,24.549],[-13.507,24.518],[-13.549,24.498],[-13.572,24.493],[-13.603,24.49],[-13.626,24.49],[-13.662,24.492],[-13.689,24.494],[-13.714,24.501],[-13.749,24.509],[-13.794,24.512],[-13.837,24.522],[-13.875,24.532],[-13.918,24.543],[-13.96,24.553],[-14.065,24.58],[-14.097,24.586],[-14.136,24.585],[-14.156,24.582],[-14.182,24.562],[-14.197,24.545],[-14.22,24.539],[-14.261,24.546],[-14.285,24.55],[-14.308,24.536],[-14.336,24.527],[-14.381,24.534],[-14.405,24.537],[-14.426,24.528],[-14.461,24.509],[-14.484,24.495],[-14.547,24.482],[-14.579,24.488],[-14.606,24.507],[-14.629,24.523],[-14.652,24.563],[-14.678,24.605],[-14.701,24.631],[-14.733,24.648],[-14.767,24.648],[-14.801,24.646],[-14.852,24.652],[-14.888,24.653],[-14.89,24.674],[-14.884,24.698],[-14.882,24.72],[-14.884,24.743],[-14.881,24.767],[-14.872,24.788],[-14.861,24.822],[-14.849,24.847],[-14.842,24.87],[-14.832,24.891],[-14.829,24.915],[-14.832,24.941],[-14.828,24.961],[-14.821,24.992],[-14.821,25.018],[-14.817,25.04],[-14.823,25.064],[-14.837,25.079],[-14.835,25.1],[-14.844,25.124],[-14.837,25.149],[-14.837,25.171],[-14.843,25.197],[-14.835,25.225],[-14.825,25.242],[-14.822,25.268],[-14.825,25.294],[-14.81,25.321],[-14.797,25.354],[-14.79,25.376],[-14.789,25.404],[-14.773,25.429],[-14.764,25.448],[-14.743,25.471],[-14.725,25.494],[-14.712,25.515],[-14.694,25.545],[-14.686,25.572],[-14.685,25.593],[-14.684,25.613],[-14.674,25.634],[-14.663,25.664],[-14.66,25.689],[-14.65,25.713],[-14.643,25.735],[-14.636,25.761],[-14.619,25.779],[-14.604,25.795],[-14.592,25.812],[-14.578,25.83],[-14.564,25.848],[-14.555,25.873],[-14.544,25.891],[-14.531,25.911],[-14.525,25.934],[-14.512,25.958],[-14.501,25.981],[-14.494,26.003],[-14.491,26.025],[-14.487,26.061],[-14.484,26.087],[-14.488,26.107],[-14.499,26.124],[-14.49,26.144],[-14.479,26.165],[-14.467,26.185],[-14.455,26.202],[-14.441,26.219],[-14.426,26.237],[-14.406,26.255],[-14.384,26.264],[-14.358,26.267],[-14.317,26.279],[-14.302,26.293],[-14.278,26.31],[-14.258,26.325],[-14.241,26.339],[-14.229,26.355],[-14.213,26.371],[-14.201,26.387],[-14.191,26.405],[-14.178,26.424],[-14.157,26.423],[-14.135,26.424],[-14.114,26.426],[-14.093,26.43],[-14.049,26.438],[-14.022,26.45],[-13.986,26.465],[-13.964,26.478],[-13.939,26.496],[-13.923,26.509],[-13.888,26.527],[-13.866,26.537],[-13.843,26.555],[-13.78,26.585],[-13.718,26.618],[-13.701,26.63],[-13.672,26.646],[-13.652,26.66],[-13.621,26.683],[-13.591,26.712],[-13.568,26.735],[-13.554,26.758],[-13.544,26.776],[-13.534,26.793],[-13.525,26.812],[-13.51,26.846],[-13.501,26.865],[-13.493,26.887],[-13.486,26.911],[-13.479,26.934],[-13.473,26.958],[-13.463,26.977],[-13.454,26.998],[-13.444,27.02],[-13.431,27.051],[-13.419,27.074],[-13.423,27.094],[-13.415,27.115],[-13.408,27.146],[-13.399,27.172],[-13.388,27.192],[-13.371,27.219],[-13.362,27.237],[-13.343,27.262],[-13.323,27.287],[-13.313,27.306],[-13.301,27.326],[-13.296,27.347],[-13.279,27.375],[-13.271,27.4],[-13.265,27.419],[-13.256,27.442],[-13.243,27.473],[-13.234,27.494],[-13.225,27.52],[-13.218,27.541],[-13.211,27.561],[-13.202,27.585],[-13.196,27.612],[-13.186,27.636],[-13.177,27.654],[-13.165,27.678],[-13.155,27.697],[-13.132,27.704],[-13.112,27.718],[-13.07,27.733],[-13.044,27.756],[-13.035,27.775],[-13.023,27.797],[-13.006,27.813],[-13.001,27.834],[-12.988,27.857],[-12.984,27.878],[-12.973,27.895],[-12.96,27.912],[-12.936,27.928],[-12.919,27.946],[-12.898,27.952],[-12.877,27.952],[-12.853,27.956],[-12.832,27.961],[-12.805,27.966],[-12.78,27.968],[-12.759,27.97],[-12.73,27.973],[-12.688,27.979],[-12.647,27.982],[-12.61,27.986],[-12.59,27.99],[-12.564,27.994],[-12.541,27.998],[-12.522,28.004],[-12.49,28.009],[-12.462,28.014],[-12.407,28.023],[-12.357,28.033],[-12.327,28.037],[-12.303,28.041],[-12.27,28.047],[-12.246,28.052],[-12.226,28.044],[-12.198,28.06],[-12.161,28.068],[-12.126,28.075],[-12.092,28.083],[-12.072,28.088],[-12.052,28.094],[-12.036,28.106],[-12.018,28.116],[-11.988,28.127],[-11.97,28.137],[-11.935,28.154],[-11.911,28.163],[-11.892,28.17],[-11.871,28.177],[-11.862,28.155],[-11.853,28.13],[-11.864,28.109],[-11.87326216750798,28.092544521163823]]]}},{"type":"Feature","properties":{"nom_region":"Rabat-Salé-Kénitra","Indice":4,"Population":4552585},"geometry":{"type":"Polygon","coordinates":[[[-6.111295409577179,35.01790063947476],[-6.09,35.011],[-6.082,34.992],[-6.077,34.972],[-6.058,34.978],[-6.037,34.983],[-6.017,34.983],[-5.999,34.994],[-5.979,35],[-5.961,34.988],[-5.962,34.968],[-5.957,34.948],[-5.935,34.953],[-5.915,34.949],[-5.898,34.938],[-5.876,34.932],[-5.856,34.939],[-5.833,34.944],[-5.813,34.941],[-5.793,34.938],[-5.772,34.932],[-5.778,34.911],[-5.776,34.891],[-5.779,34.87],[-5.781,34.85],[-5.789,34.831],[-5.784,34.812],[-5.781,34.786],[-5.762,34.776],[-5.764,34.756],[-5.774,34.737],[-5.756,34.727],[-5.731,34.722],[-5.723,34.703],[-5.708,34.69],[-5.688,34.694],[-5.672,34.71],[-5.67,34.73],[-5.648,34.74],[-5.63,34.731],[-5.611,34.725],[-5.59,34.727],[-5.575,34.714],[-5.564,34.695],[-5.551,34.679],[-5.533,34.667],[-5.526,34.647],[-5.506,34.646],[-5.491,34.631],[-5.471,34.634],[-5.452,34.628],[-5.437,34.614],[-5.422,34.601],[-5.416,34.582],[-5.432,34.57],[-5.43,34.549],[-5.41,34.547],[-5.389,34.541],[-5.367,34.536],[-5.348,34.528],[-5.33,34.517],[-5.335,34.498],[-5.338,34.478],[-5.344,34.456],[-5.368,34.456],[-5.383,34.441],[-5.389,34.42],[-5.402,34.403],[-5.423,34.403],[-5.443,34.397],[-5.463,34.394],[-5.479,34.381],[-5.498,34.375],[-5.524,34.381],[-5.52,34.36],[-5.503,34.349],[-5.505,34.328],[-5.491,34.314],[-5.471,34.313],[-5.451,34.306],[-5.441,34.289],[-5.43,34.271],[-5.418,34.255],[-5.436,34.247],[-5.448,34.23],[-5.468,34.221],[-5.481,34.206],[-5.465,34.195],[-5.459,34.175],[-5.468,34.156],[-5.488,34.152],[-5.508,34.153],[-5.527,34.16],[-5.536,34.142],[-5.548,34.125],[-5.567,34.118],[-5.586,34.113],[-5.6,34.128],[-5.62,34.129],[-5.64,34.129],[-5.66,34.123],[-5.68,34.124],[-5.7,34.126],[-5.72,34.125],[-5.714,34.144],[-5.701,34.159],[-5.704,34.179],[-5.725,34.18],[-5.745,34.175],[-5.765,34.174],[-5.783,34.184],[-5.801,34.194],[-5.822,34.191],[-5.816,34.172],[-5.828,34.156],[-5.847,34.148],[-5.874,34.141],[-5.881,34.119],[-5.861,34.116],[-5.841,34.111],[-5.835,34.091],[-5.838,34.07],[-5.825,34.054],[-5.82,34.034],[-5.821,34.013],[-5.803,33.996],[-5.788,33.982],[-5.772,33.969],[-5.758,33.955],[-5.762,33.935],[-5.771,33.917],[-5.777,33.898],[-5.799,33.895],[-5.804,33.876],[-5.792,33.86],[-5.772,33.855],[-5.77,33.835],[-5.761,33.816],[-5.742,33.811],[-5.725,33.8],[-5.716,33.773],[-5.728,33.756],[-5.731,33.735],[-5.735,33.716],[-5.751,33.703],[-5.767,33.689],[-5.782,33.675],[-5.785,33.655],[-5.779,33.635],[-5.787,33.616],[-5.799,33.6],[-5.79,33.582],[-5.778,33.565],[-5.78,33.544],[-5.785,33.525],[-5.794,33.506],[-5.814,33.5],[-5.809,33.481],[-5.789,33.478],[-5.78,33.461],[-5.765,33.446],[-5.761,33.426],[-5.767,33.403],[-5.769,33.376],[-5.771,33.351],[-5.781,33.334],[-5.798,33.322],[-5.814,33.31],[-5.834,33.311],[-5.854,33.311],[-5.874,33.312],[-5.894,33.314],[-5.914,33.317],[-5.931,33.328],[-5.949,33.32],[-5.965,33.331],[-5.982,33.319],[-5.999,33.33],[-6.01,33.311],[-6.03,33.3],[-6.048,33.289],[-6.069,33.286],[-6.082,33.302],[-6.102,33.299],[-6.122,33.296],[-6.137,33.309],[-6.143,33.33],[-6.151,33.349],[-6.146,33.368],[-6.163,33.38],[-6.18,33.392],[-6.197,33.403],[-6.207,33.42],[-6.227,33.421],[-6.247,33.418],[-6.267,33.424],[-6.287,33.426],[-6.305,33.435],[-6.316,33.417],[-6.336,33.407],[-6.35,33.392],[-6.351,33.37],[-6.368,33.359],[-6.386,33.351],[-6.403,33.339],[-6.417,33.323],[-6.407,33.305],[-6.396,33.288],[-6.381,33.274],[-6.382,33.253],[-6.397,33.238],[-6.413,33.226],[-6.434,33.224],[-6.432,33.203],[-6.452,33.199],[-6.474,33.179],[-6.494,33.176],[-6.514,33.167],[-6.534,33.162],[-6.558,33.168],[-6.576,33.179],[-6.594,33.189],[-6.614,33.194],[-6.628,33.209],[-6.647,33.217],[-6.671,33.218],[-6.692,33.21],[-6.712,33.205],[-6.734,33.205],[-6.751,33.217],[-6.773,33.218],[-6.792,33.224],[-6.807,33.238],[-6.829,33.237],[-6.832,33.258],[-6.824,33.277],[-6.831,33.298],[-6.829,33.319],[-6.828,33.339],[-6.811,33.358],[-6.81,33.379],[-6.817,33.398],[-6.82,33.418],[-6.839,33.41],[-6.856,33.424],[-6.858,33.447],[-6.844,33.462],[-6.826,33.473],[-6.813,33.493],[-6.796,33.503],[-6.776,33.508],[-6.771,33.527],[-6.764,33.546],[-6.783,33.55],[-6.805,33.548],[-6.825,33.549],[-6.849,33.546],[-6.867,33.561],[-6.883,33.575],[-6.901,33.566],[-6.906,33.587],[-6.927,33.592],[-6.948,33.601],[-6.97,33.598],[-6.988,33.59],[-6.993,33.611],[-7,33.629],[-7.003,33.65],[-7.014,33.671],[-7.023,33.689],[-7.023,33.709],[-7.029,33.728],[-7.035,33.748],[-7.04,33.768],[-7.056,33.782],[-7.058,33.802],[-7.078,33.797],[-7.097,33.801],[-7.111,33.816],[-7.12,33.835],[-7.103,33.847],[-7.085,33.857],[-7.066,33.867],[-7.046,33.872],[-7.028,33.882],[-7.011,33.892],[-6.996,33.906],[-6.979,33.917],[-6.962,33.928],[-6.945,33.939],[-6.929,33.953],[-6.913,33.966],[-6.899,33.981],[-6.884,33.994],[-6.868,34.008],[-6.855,34.022],[-6.84,34.035],[-6.826,34.051],[-6.811,34.064],[-6.795,34.078],[-6.782,34.095],[-6.769,34.11],[-6.756,34.125],[-6.743,34.142],[-6.73,34.158],[-6.719,34.175],[-6.705,34.193],[-6.695,34.211],[-6.684,34.243],[-6.673,34.265],[-6.655,34.289],[-6.635,34.316],[-6.62,34.337],[-6.603,34.359],[-6.588,34.379],[-6.574,34.399],[-6.558,34.423],[-6.546,34.44],[-6.531,34.461],[-6.514,34.488],[-6.501,34.509],[-6.488,34.532],[-6.476,34.551],[-6.464,34.572],[-6.436,34.619],[-6.425,34.637],[-6.395,34.689],[-6.382,34.714],[-6.372,34.732],[-6.357,34.762],[-6.344,34.787],[-6.327,34.819],[-6.311,34.851],[-6.302,34.87],[-6.294,34.889],[-6.279,34.918],[-6.272,34.938],[-6.261,34.963],[-6.25,34.985],[-6.232,34.999],[-6.212,35],[-6.193,34.993],[-6.172,34.989],[-6.151,34.995],[-6.132,35.005],[-6.111295409577179,35.01790063947476]]]}},{"type":"Feature","properties":{"nom_region":"Souss-Massa","Indice":9,"Population":2657906},"geometry":{"type":"Polygon","coordinates":[[[-7.835619898932551,31.134000343633335],[-7.815,31.138],[-7.795,31.133],[-7.761,31.138],[-7.74,31.117],[-7.74,31.097],[-7.748,31.078],[-7.75,31.058],[-7.728,31.045],[-7.721,31.025],[-7.726,31.006],[-7.73,30.985],[-7.744,30.971],[-7.752,30.95],[-7.744,30.925],[-7.763,30.913],[-7.772,30.895],[-7.753,30.888],[-7.734,30.882],[-7.725,30.864],[-7.701,30.851],[-7.652,30.855],[-7.666,30.817],[-7.657,30.797],[-7.666,30.779],[-7.678,30.762],[-7.696,30.753],[-7.678,30.742],[-7.651,30.736],[-7.627,30.736],[-7.608,30.723],[-7.617,30.704],[-7.647,30.696],[-7.669,30.653],[-7.649,30.657],[-7.628,30.661],[-7.603,30.66],[-7.582,30.658],[-7.564,30.642],[-7.556,30.622],[-7.544,30.603],[-7.521,30.594],[-7.512,30.573],[-7.517,30.553],[-7.534,30.537],[-7.556,30.533],[-7.578,30.519],[-7.606,30.509],[-7.637,30.513],[-7.631,30.49],[-7.612,30.466],[-7.618,30.439],[-7.626,30.414],[-7.62,30.392],[-7.601,30.326],[-7.587,30.299],[-7.576,30.268],[-7.57,30.247],[-7.574,30.223],[-7.55,30.228],[-7.531,30.221],[-7.511,30.208],[-7.487,30.205],[-7.468,30.197],[-7.448,30.193],[-7.426,30.193],[-7.373,30.191],[-7.353,30.199],[-7.283,30.214],[-7.278,30.237],[-7.258,30.254],[-7.243,30.267],[-7.23,30.284],[-7.247,30.296],[-7.245,30.317],[-7.228,30.333],[-7.214,30.349],[-7.213,30.369],[-7.209,30.389],[-7.183,30.38],[-7.15,30.368],[-7.124,30.358],[-7.094,30.346],[-7.068,30.339],[-7.041,30.337],[-7.018,30.337],[-6.992,30.338],[-6.963,30.346],[-6.944,30.354],[-6.924,30.357],[-6.903,30.354],[-6.883,30.354],[-6.864,30.362],[-6.859,30.382],[-6.844,30.395],[-6.82,30.405],[-6.808,30.422],[-6.796,30.441],[-6.773,30.451],[-6.755,30.46],[-6.731,30.47],[-6.717,30.487],[-6.688,30.485],[-6.666,30.471],[-6.661,30.444],[-6.648,30.427],[-6.631,30.414],[-6.594,30.404],[-6.574,30.4],[-6.559,30.381],[-6.529,30.362],[-6.512,30.342],[-6.512,30.318],[-6.551,30.302],[-6.557,30.281],[-6.566,30.262],[-6.587,30.249],[-6.593,30.216],[-6.553,30.178],[-6.543,30.153],[-6.543,30.128],[-6.544,30.107],[-6.545,30.084],[-6.549,30.062],[-6.55,30.04],[-6.535,30.024],[-6.512,30.024],[-6.487,30.035],[-6.455,30.046],[-6.433,30.049],[-6.408,30.054],[-6.387,30.053],[-6.379,30.032],[-6.381,30.011],[-6.382,29.979],[-6.354,29.977],[-6.325,29.97],[-6.306,29.961],[-6.304,29.928],[-6.299,29.894],[-6.295,29.871],[-6.336,29.847],[-6.38,29.829],[-6.414,29.822],[-6.447,29.814],[-6.472,29.809],[-6.56,29.777],[-6.561,29.746],[-6.562,29.723],[-6.562,29.696],[-6.563,29.671],[-6.576,29.652],[-6.6,29.652],[-6.616,29.638],[-6.614,29.617],[-6.608,29.585],[-6.6,29.564],[-6.576,29.561],[-6.545,29.571],[-6.518,29.588],[-6.499,29.597],[-6.474,29.597],[-6.462,29.551],[-6.457,29.521],[-6.486,29.526],[-6.523,29.52],[-6.563,29.512],[-6.619,29.5],[-6.658,29.485],[-6.69,29.472],[-6.715,29.477],[-6.805,29.475],[-6.826,29.476],[-6.873,29.482],[-6.918,29.485],[-6.969,29.49],[-7.011,29.493],[-7.062,29.499],[-7.092,29.5],[-7.131,29.497],[-7.157,29.492],[-7.189,29.482],[-7.218,29.474],[-7.236,29.466],[-7.281,29.455],[-7.308,29.444],[-7.329,29.436],[-7.355,29.426],[-7.404,29.404],[-7.423,29.396],[-7.484,29.38],[-7.515,29.367],[-7.537,29.358],[-7.582,29.338],[-7.626,29.323],[-7.678,29.289],[-7.709,29.274],[-7.733,29.259],[-7.769,29.24],[-7.81,29.209],[-7.903,29.152],[-7.946,29.128],[-8.006,29.097],[-8.047,29.07],[-8.085,29.048],[-8.121,29.027],[-8.196,28.968],[-8.25,28.931],[-8.316,28.885],[-8.339,28.867],[-8.356,28.853],[-8.391,28.829],[-8.415,28.814],[-8.439,28.799],[-8.473,28.776],[-8.502,28.761],[-8.536,28.74],[-8.539,28.76],[-8.728,28.715],[-8.843,28.664],[-9.028,28.624],[-9.052,28.622],[-9.158,28.593],[-9.128,28.648],[-9.133,28.694],[-9.169,28.694],[-9.188,28.72],[-9.203,28.736],[-9.23,28.767],[-9.234,28.795],[-9.259,28.82],[-9.271,28.841],[-9.264,28.875],[-9.259,28.899],[-9.18,28.925],[-9.165,28.977],[-9.193,28.994],[-9.207,29.027],[-9.144,29.078],[-9.153,29.107],[-9.135,29.116],[-9.124,29.137],[-9.104,29.148],[-9.083,29.161],[-9.08,29.194],[-9.08,29.22],[-9.096,29.241],[-9.114,29.251],[-9.135,29.264],[-9.139,29.287],[-9.139,29.308],[-9.144,29.332],[-9.144,29.354],[-9.145,29.38],[-9.159,29.399],[-9.191,29.422],[-9.216,29.44],[-9.226,29.459],[-9.23,29.478],[-9.25,29.482],[-9.271,29.48],[-9.291,29.48],[-9.299,29.5],[-9.318,29.505],[-9.338,29.502],[-9.358,29.498],[-9.369,29.467],[-9.389,29.465],[-9.404,29.452],[-9.418,29.436],[-9.438,29.433],[-9.455,29.442],[-9.477,29.458],[-9.511,29.439],[-9.53,29.448],[-9.526,29.472],[-9.546,29.48],[-9.564,29.471],[-9.579,29.458],[-9.591,29.442],[-9.611,29.443],[-9.623,29.46],[-9.641,29.468],[-9.636,29.449],[-9.639,29.429],[-9.657,29.438],[-9.677,29.445],[-9.696,29.452],[-9.7,29.472],[-9.718,29.48],[-9.725,29.461],[-9.745,29.446],[-9.767,29.436],[-9.788,29.43],[-9.817,29.43],[-9.836,29.424],[-9.856,29.43],[-9.872,29.441],[-9.883,29.458],[-9.902,29.469],[-9.909,29.498],[-9.915,29.52],[-9.898,29.546],[-9.916,29.538],[-9.939,29.542],[-9.96,29.543],[-9.975,29.525],[-9.989,29.509],[-9.995,29.528],[-9.991,29.549],[-9.993,29.569],[-9.992,29.589],[-10.003,29.607],[-10.003,29.627],[-9.998,29.647],[-9.985,29.662],[-9.976,29.68],[-9.963,29.697],[-9.946,29.71],[-9.927,29.726],[-9.911,29.739],[-9.882,29.761],[-9.866,29.776],[-9.849,29.792],[-9.834,29.806],[-9.822,29.825],[-9.808,29.841],[-9.794,29.856],[-9.79,29.876],[-9.777,29.892],[-9.766,29.909],[-9.76,29.929],[-9.748,29.945],[-9.739,29.963],[-9.731,29.981],[-9.721,29.999],[-9.711,30.016],[-9.702,30.035],[-9.693,30.053],[-9.68,30.068],[-9.669,30.085],[-9.663,30.105],[-9.654,30.122],[-9.651,30.143],[-9.644,30.162],[-9.639,30.182],[-9.642,30.202],[-9.636,30.221],[-9.631,30.241],[-9.627,30.262],[-9.623,30.284],[-9.619,30.31],[-9.611,30.345],[-9.605,30.365],[-9.601,30.388],[-9.603,30.409],[-9.618,30.423],[-9.64,30.422],[-9.651,30.44],[-9.664,30.455],[-9.67,30.475],[-9.676,30.494],[-9.687,30.512],[-9.699,30.534],[-9.715,30.546],[-9.736,30.55],[-9.745,30.569],[-9.758,30.584],[-9.774,30.596],[-9.788,30.611],[-9.807,30.617],[-9.825,30.627],[-9.845,30.627],[-9.865,30.624],[-9.885,30.626],[-9.889,30.646],[-9.885,30.666],[-9.879,30.686],[-9.868,30.703],[-9.853,30.717],[-9.849,30.737],[-9.836,30.753],[-9.828,30.772],[-9.817,30.79],[-9.809,30.809],[-9.806,30.829],[-9.823,30.838],[-9.821,30.859],[-9.813,30.877],[-9.812,30.898],[-9.819,30.916],[-9.804,30.93],[-9.784,30.928],[-9.764,30.921],[-9.756,30.902],[-9.761,30.883],[-9.745,30.871],[-9.737,30.851],[-9.733,30.831],[-9.725,30.81],[-9.728,30.79],[-9.714,30.774],[-9.694,30.782],[-9.673,30.788],[-9.652,30.791],[-9.636,30.803],[-9.629,30.822],[-9.623,30.846],[-9.613,30.864],[-9.595,30.857],[-9.574,30.845],[-9.553,30.844],[-9.556,30.87],[-9.54,30.882],[-9.525,30.868],[-9.504,30.864],[-9.484,30.854],[-9.462,30.846],[-9.441,30.836],[-9.422,30.844],[-9.405,30.856],[-9.385,30.861],[-9.362,30.852],[-9.341,30.851],[-9.321,30.856],[-9.301,30.852],[-9.283,30.844],[-9.266,30.831],[-9.251,30.816],[-9.231,30.802],[-9.209,30.801],[-9.193,30.813],[-9.179,30.829],[-9.165,30.843],[-9.136,30.851],[-9.113,30.841],[-9.092,30.829],[-9.071,30.823],[-9.049,30.827],[-9.022,30.834],[-9.002,30.835],[-8.993,30.86],[-8.986,30.88],[-8.966,30.897],[-8.943,30.902],[-8.923,30.909],[-8.902,30.92],[-8.87,30.945],[-8.833,30.965],[-8.792,30.961],[-8.783,30.938],[-8.767,30.924],[-8.753,30.909],[-8.763,30.889],[-8.773,30.863],[-8.762,30.845],[-8.744,30.835],[-8.731,30.851],[-8.707,30.866],[-8.683,30.883],[-8.665,30.893],[-8.648,30.906],[-8.622,30.912],[-8.602,30.912],[-8.583,30.906],[-8.555,30.888],[-8.533,30.882],[-8.511,30.876],[-8.489,30.877],[-8.467,30.874],[-8.444,30.876],[-8.413,30.881],[-8.391,30.875],[-8.367,30.87],[-8.343,30.873],[-8.318,30.875],[-8.283,30.876],[-8.261,30.88],[-8.239,30.899],[-8.214,30.916],[-8.187,30.923],[-8.166,30.927],[-8.143,30.927],[-8.123,30.918],[-8.093,30.909],[-8.072,30.909],[-8.051,30.904],[-8.027,30.903],[-8.006,30.919],[-7.988,30.929],[-7.987,30.951],[-7.985,30.979],[-7.975,31.004],[-7.966,31.035],[-7.962,31.057],[-7.946,31.073],[-7.928,31.081],[-7.914,31.095],[-7.893,31.103],[-7.874,31.11],[-7.865,31.128],[-7.844,31.137],[-7.835619898932551,31.134000343633335]]]}}]}